{
  "type": "FeatureCollection",
  "features": [
    {
      "type": "Feature",
      "properties": {
        "id": "route_start_n01",
        "start_id": "start_n01",
        "distance_km": 417.7989300263241
      },
      "geometry": {
        "type": "LineString",
        "coordinates": [
          [
            128.5995931,
            38.1902977
          ],
          [
            128.564591,
            38.2064507
          ],
          [
            128.4958949,
            38.379826
          ],
          [
            128.3888256,
            38.3707063
          ],
          [
            128.3524529,
            38.2757199
          ],
          [
            128.3683393,
            38.2191026
          ],
          [
            128.1819457,
            38.0976778
          ],
          [
            127.9139434,
            37.6989574
          ],
          [
            127.77972,
            37.63032
          ],
          [
            127.6599186,
            37.5178774
          ],
          [
            127.73149,
            37.4779
          ],
          [
            127.75402,
            37.41228
          ],
          [
            127.5809693,
            37.3724134
          ],
          [
            127.6306965,
            37.3310013
          ],
          [
            127.618922,
            37.2863696
          ],
          [
            127.5139609,
            37.183651
          ],
          [
            127.4853213,
            37.1034104
          ],
          [
            127.1486137,
            36.9384978
          ],
          [
            127.0536363,
            36.7888799
          ],
          [
            126.947867,
            36.7838662
          ],
          [
            126.837656,
            36.731553
          ],
          [
            126.8264343,
            36.6828738
          ],
          [
            126.7666077,
            36.6585978
          ],
          [
            126.7946888,
            36.5865671
          ],
          [
            126.7633917,
            36.5136634
          ],
          [
            126.7440996,
            36.4959433
          ],
          [
            126.6171321,
            36.5045536
          ],
          [
            126.5869813,
            36.4476552
          ],
          [
            126.5692131,
            36.397548
          ],
          [
            126.6250742,
            36.3514337
          ],
          [
            126.60062,
            36.28307
          ],
          [
            126.5908946,
            36.3421007
          ],
          [
            126.5154057,
            36.3161835
          ]
        ]
      }
    },
    {
      "type": "Feature",
      "properties": {
        "id": "route_start_n02",
        "start_id": "start_n02",
        "distance_km": 444.59521643748906
      },
      "geometry": {
        "type": "LineString",
        "coordinates": [
          [
            129.0153087,
            37.6790107
          ],
          [
            129.0185906,
            37.6367601
          ],
          [
            129.1001637,
            37.5847976
          ],
          [
            129.1259914,
            37.425428
          ],
          [
            129.0381839,
            37.2328381
          ],
          [
            129.0400857,
            37.1721579
          ],
          [
            128.9937006,
            37.174065
          ],
          [
            129.0016422,
            37.1059307
          ],
          [
            129.0292642,
            37.0956739
          ],
          [
            128.973324,
            37.0062043
          ],
          [
            128.9973122,
            36.9401879
          ],
          [
            128.9682526,
            36.9162109
          ],
          [
            128.7809021,
            36.9066471
          ],
          [
            128.6324305,
            36.827345
          ],
          [
            128.5260858,
            36.8639874
          ],
          [
            128.4981189,
            36.7543036
          ],
          [
            128.5252212,
            36.7174921
          ],
          [
            128.4536962,
            36.6438309
          ],
          [
            128.4728423,
            36.5753268
          ],
          [
            128.4143888,
            36.5767775
          ],
          [
            128.3411041,
            36.4852728
          ],
          [
            128.281998,
            36.5038653
          ],
          [
            128.1728391,
            36.4165254
          ],
          [
            128.05865,
            36.41158
          ],
          [
            127.9645714,
            36.3369892
          ],
          [
            127.8942146,
            36.3296871
          ],
          [
            127.8605186,
            36.2547614
          ],
          [
            127.7899177,
            36.2810497
          ],
          [
            127.7355877,
            36.2310137
          ],
          [
            127.5890285,
            36.2696876
          ],
          [
            127.4955986,
            36.3478231
          ],
          [
            127.4688855,
            36.3190203
          ],
          [
            127.3251533,
            36.2997394
          ],
          [
            127.1968139,
            36.2077773
          ],
          [
            127.1428918,
            36.2129474
          ],
          [
            127.1508027,
            36.2369226
          ],
          [
            127.1180311,
            36.2478333
          ],
          [
            127.0794319,
            36.2113223
          ],
          [
            126.9514107,
            36.2765815
          ],
          [
            126.8058125,
            36.2490582
          ],
          [
            126.7588332,
            36.2967222
          ],
          [
            126.6519615,
            36.2969625
          ],
          [
            126.5645797,
            36.2454089
          ],
          [
            126.5154057,
            36.3161835
          ]
        ]
      }
    },
    {
      "type": "Feature",
      "properties": {
        "id": "route_start_n04",
        "start_id": "start_n04",
        "distance_km": 434.3970922990307
      },
      "geometry": {
        "type": "LineString",
        "coordinates": [
          [
            129.418046,
            36.8936829
          ],
          [
            129.4611196,
            36.7639323
          ],
          [
            129.3957398,
            36.5600442
          ],
          [
            129.4130275,
            36.500121
          ],
          [
            129.3786074,
            36.3512966
          ],
          [
            129.3042487,
            36.3836188
          ],
          [
            129.2907172,
            36.4189286
          ],
          [
            129.2108823,
            36.3350166
          ],
          [
            129.0744339,
            36.3671669
          ],
          [
            129.0242049,
            36.2903861
          ],
          [
            128.9062929,
            36.2908162
          ],
          [
            128.8437961,
            36.2376351
          ],
          [
            128.7372078,
            36.2293571
          ],
          [
            128.6833666,
            36.2516931
          ],
          [
            128.59428,
            36.23083
          ],
          [
            128.5316952,
            36.2787588
          ],
          [
            128.4752705,
            36.2573751
          ],
          [
            128.3597422,
            36.2844382
          ],
          [
            128.2931258,
            36.2376714
          ],
          [
            127.9614873,
            36.3031862
          ],
          [
            127.91377,
            36.26298
          ],
          [
            127.9129115,
            36.2254494
          ],
          [
            127.7944483,
            36.2814211
          ],
          [
            127.7339526,
            36.2309309
          ],
          [
            127.5890285,
            36.2696876
          ],
          [
            127.4952964,
            36.3478203
          ],
          [
            127.4688855,
            36.3190203
          ],
          [
            127.3247941,
            36.2995647
          ],
          [
            127.2221554,
            36.210536
          ],
          [
            127.1428918,
            36.2129474
          ],
          [
            127.1508027,
            36.2369226
          ],
          [
            127.1175873,
            36.2478429
          ],
          [
            127.0794319,
            36.2113223
          ],
          [
            126.9514107,
            36.2765815
          ],
          [
            126.8055314,
            36.2491257
          ],
          [
            126.7588332,
            36.2967222
          ],
          [
            126.6519615,
            36.2969625
          ],
          [
            126.5645797,
            36.2454089
          ],
          [
            126.5154057,
            36.3161835
          ]
        ]
      }
    },
    {
      "type": "Feature",
      "properties": {
        "id": "route_start_n06",
        "start_id": "start_n06",
        "distance_km": 403.30088730441
      },
      "geometry": {
        "type": "LineString",
        "coordinates": [
          [
            129.5306972,
            35.9827225
          ],
          [
            129.5304867,
            35.8671801
          ],
          [
            129.4885976,
            35.7833997
          ],
          [
            129.4275885,
            35.7989165
          ],
          [
            129.3433165,
            35.7681537
          ],
          [
            129.3002708,
            35.8314225
          ],
          [
            129.2649503,
            35.8471459
          ],
          [
            129.1403977,
            35.81918
          ],
          [
            128.9726605,
            35.9397285
          ],
          [
            128.878461,
            35.9371656
          ],
          [
            128.7475939,
            35.8719907
          ],
          [
            128.5368268,
            35.8834626
          ],
          [
            128.4727112,
            35.9637243
          ],
          [
            128.3949316,
            35.9884075
          ],
          [
            128.4105028,
            36.1110411
          ],
          [
            128.2602606,
            36.16093
          ],
          [
            128.1945669,
            36.1549622
          ],
          [
            128.1549021,
            36.1156986
          ],
          [
            128.0194905,
            36.1275387
          ],
          [
            127.8763834,
            36.2074097
          ],
          [
            127.8155553,
            36.1679356
          ],
          [
            127.7739771,
            36.1737355
          ],
          [
            127.4958854,
            36.347793
          ],
          [
            127.4688855,
            36.3190203
          ],
          [
            127.3251533,
            36.2997394
          ],
          [
            127.1968139,
            36.2077773
          ],
          [
            127.1428918,
            36.2129474
          ],
          [
            127.1508027,
            36.2369226
          ],
          [
            127.1180311,
            36.2478333
          ],
          [
            127.0794319,
            36.2113223
          ],
          [
            126.9514107,
            36.2765815
          ],
          [
            126.8058125,
            36.2490582
          ],
          [
            126.7588332,
            36.2967222
          ],
          [
            126.6519615,
            36.2969625
          ],
          [
            126.5645797,
            36.2454089
          ],
          [
            126.5154057,
            36.3161835
          ]
        ]
      }
    },
    {
      "type": "Feature",
      "properties": {
        "id": "route_start_n07",
        "start_id": "start_n07",
        "distance_km": 378.83056222101527
      },
      "geometry": {
        "type": "LineString",
        "coordinates": [
          [
            129.5013507,
            35.8150102
          ],
          [
            129.4885976,
            35.7833997
          ],
          [
            129.4275885,
            35.7989165
          ],
          [
            129.3404526,
            35.7686713
          ],
          [
            129.3002708,
            35.8314225
          ],
          [
            129.2649503,
            35.8471459
          ],
          [
            129.1403977,
            35.81918
          ],
          [
            128.9719794,
            35.9398116
          ],
          [
            128.878461,
            35.9371656
          ],
          [
            128.7475939,
            35.8719907
          ],
          [
            128.5368268,
            35.8834626
          ],
          [
            128.4727112,
            35.9637243
          ],
          [
            128.3949316,
            35.9884075
          ],
          [
            128.4105028,
            36.1110411
          ],
          [
            128.2602606,
            36.16093
          ],
          [
            128.1945669,
            36.1549622
          ],
          [
            128.1549021,
            36.1156986
          ],
          [
            128.0194905,
            36.1275387
          ],
          [
            127.8763834,
            36.2074097
          ],
          [
            127.8155553,
            36.1679356
          ],
          [
            127.7739771,
            36.1737355
          ],
          [
            127.4958854,
            36.347793
          ],
          [
            127.4688855,
            36.3190203
          ],
          [
            127.3251533,
            36.2997394
          ],
          [
            127.1968139,
            36.2077773
          ],
          [
            127.1428918,
            36.2129474
          ],
          [
            127.1508027,
            36.2369226
          ],
          [
            127.1180311,
            36.2478333
          ],
          [
            127.0794319,
            36.2113223
          ],
          [
            126.9514107,
            36.2765815
          ],
          [
            126.8058125,
            36.2490582
          ],
          [
            126.7588332,
            36.2967222
          ],
          [
            126.6519615,
            36.2969625
          ],
          [
            126.5645797,
            36.2454089
          ],
          [
            126.5154057,
            36.3161835
          ]
        ]
      }
    },
    {
      "type": "Feature",
      "properties": {
        "id": "route_start_n09",
        "start_id": "start_n09",
        "distance_km": 381.24092847029766
      },
      "geometry": {
        "type": "LineString",
        "coordinates": [
          [
            129.0814173,
            35.0617602
          ],
          [
            128.9880515,
            35.1426792
          ],
          [
            128.9982412,
            35.2011251
          ],
          [
            128.72696,
            35.3117966
          ],
          [
            128.696768,
            35.4064895
          ],
          [
            128.4498731,
            35.4585281
          ],
          [
            128.4434335,
            35.4894226
          ],
          [
            128.35881,
            35.54028
          ],
          [
            128.3825699,
            35.6012532
          ],
          [
            128.2828554,
            35.6423293
          ],
          [
            128.2532984,
            35.7002118
          ],
          [
            128.2398884,
            35.6768461
          ],
          [
            128.1409541,
            35.6794513
          ],
          [
            128.0626246,
            35.6352655
          ],
          [
            127.96123,
            35.63531
          ],
          [
            127.813717,
            35.9009592
          ],
          [
            127.7124247,
            35.9309681
          ],
          [
            127.684463,
            35.9142197
          ],
          [
            127.6488567,
            35.9813945
          ],
          [
            127.5955146,
            35.9981846
          ],
          [
            127.471307,
            36.124229
          ],
          [
            127.3636859,
            36.1394695
          ],
          [
            127.27972,
            36.1989521
          ],
          [
            127.2114026,
            36.1596179
          ],
          [
            127.1935337,
            36.1741278
          ],
          [
            127.1545547,
            36.1330677
          ],
          [
            127.1121433,
            36.1978265
          ],
          [
            126.9516976,
            36.2764565
          ],
          [
            126.8062512,
            36.2490026
          ],
          [
            126.7628874,
            36.2960616
          ],
          [
            126.6536988,
            36.2972613
          ],
          [
            126.5645797,
            36.2454089
          ],
          [
            126.5154057,
            36.3161835
          ]
        ]
      }
    },
    {
      "type": "Feature",
      "properties": {
        "id": "start_n01",
        "role": "start_reference"
      },
      "geometry": {
        "type": "Point",
        "coordinates": [
          128.60026244400336,
          38.201699714849525
        ]
      }
    },
    {
      "type": "Feature",
      "properties": {
        "id": "start_n02",
        "role": "start_reference"
      },
      "geometry": {
        "type": "Point",
        "coordinates": [
          129.03584724368278,
          37.690087283748895
        ]
      }
    },
    {
      "type": "Feature",
      "properties": {
        "id": "start_n03",
        "role": "start_reference"
      },
      "geometry": {
        "type": "Point",
        "coordinates": [
          129.1203598,
          37.5542262
        ]
      }
    },
    {
      "type": "Feature",
      "properties": {
        "id": "start_n04",
        "role": "start_reference"
      },
      "geometry": {
        "type": "Point",
        "coordinates": [
          129.4181111,
          36.8934046
        ]
      }
    },
    {
      "type": "Feature",
      "properties": {
        "id": "start_n05",
        "role": "start_reference"
      },
      "geometry": {
        "type": "Point",
        "coordinates": [
          129.4495191,
          36.5077464
        ]
      }
    },
    {
      "type": "Feature",
      "properties": {
        "id": "start_n06",
        "role": "start_reference"
      },
      "geometry": {
        "type": "Point",
        "coordinates": [
          129.5695203,
          36.0762627
        ]
      }
    },
    {
      "type": "Feature",
      "properties": {
        "id": "start_n07",
        "role": "start_reference"
      },
      "geometry": {
        "type": "Point",
        "coordinates": [
          129.51166688563615,
          35.807202592147405
        ]
      }
    },
    {
      "type": "Feature",
      "properties": {
        "id": "start_n08",
        "role": "start_reference"
      },
      "geometry": {
        "type": "Point",
        "coordinates": [
          129.3618425107857,
          35.35933070737411
        ]
      }
    },
    {
      "type": "Feature",
      "properties": {
        "id": "start_n09",
        "role": "start_reference"
      },
      "geometry": {
        "type": "Point",
        "coordinates": [
          129.0925233,
          35.0526985
        ]
      }
    },
    {
      "type": "Feature",
      "properties": {
        "id": "finish_w01",
        "role": "finish_placeholder"
      },
      "geometry": {
        "type": "Point",
        "coordinates": [
          126.51131,
          36.31125
        ]
      }
    }
  ]
}