{"type":"FeatureCollection","features":[{"type":"Feature","properties":{"name":"대한민국","iso":"KOR","source":"Natural Earth / geoBoundaries","license":"Public domain"},"geometry":{"type":"MultiPolygon","coordinates":[[[[126.82337,33.55944],[126.6488,33.55343],[126.58243,33.52928],[126.48493,33.52076],[126.45938,33.50238],[126.35736,33.47796],[126.31057,33.46448],[126.29795,33.44171],[126.27066,33.43587],[126.24098,33.39277],[126.20623,33.37556],[126.19581,33.36669],[126.17897,33.34146],[126.16114,33.30077],[126.1714,33.26935],[126.20082,33.24355],[126.23115,33.23492],[126.25392,33.20405],[126.27003,33.19758],[126.28614,33.20038],[126.30379,33.22656],[126.33343,33.23817],[126.42846,33.23931],[126.47056,33.22871],[126.52121,33.23662],[126.56553,33.23291],[126.60692,33.24061],[126.64072,33.26467],[126.74179,33.28021],[126.78014,33.30555],[126.80641,33.30362],[126.81593,33.30781],[126.84059,33.31021],[126.87353,33.37305],[126.90751,33.39573],[126.92555,33.41315],[126.92726,33.41608],[126.9358,33.42548],[126.93922,33.43085],[126.93922,33.43627],[126.93287,33.4455],[126.93238,33.45132],[126.9393,33.45824],[126.94899,33.4606],[126.95362,33.46503],[126.94606,33.47801],[126.94337,33.47382],[126.93702,33.46947],[126.93238,33.46491],[126.9227,33.47663],[126.91285,33.50658],[126.8982,33.51899],[126.84995,33.53498],[126.83522,33.54458],[126.82337,33.55944]]],[[[127.29566,34.06147],[127.28004,34.05744],[127.28077,34.03779],[127.29566,34.01411],[127.30934,34.01146],[127.3235,34.00576],[127.2964,34.03758],[127.29469,34.04792],[127.29811,34.0572],[127.29566,34.06147]]],[[[125.13738,34.05134],[125.1364,34.05927],[125.12208,34.08381],[125.11329,34.09284],[125.10222,34.09593],[125.09457,34.09007],[125.08969,34.07954],[125.09213,34.07176],[125.12989,34.04755],[125.13429,34.04686],[125.13738,34.05134]]],[[[126.56788,34.16865],[126.54811,34.1791],[126.53289,34.1791],[126.51515,34.16885],[126.50636,34.154],[126.50709,34.13886],[126.51775,34.12714],[126.53688,34.12645],[126.5818,34.15742],[126.61598,34.15697],[126.60768,34.16559],[126.59897,34.16865],[126.56788,34.16865]]],[[[126.66538,34.11909],[126.67945,34.14655],[126.67604,34.15143],[126.67205,34.15327],[126.66188,34.16572],[126.66358,34.17333],[126.67311,34.18012],[126.67075,34.18989],[126.65382,34.19709],[126.64527,34.19717],[126.64479,34.19375],[126.63649,34.18716],[126.63844,34.18256],[126.64503,34.17748],[126.64283,34.16462],[126.63649,34.14155],[126.63868,34.12812],[126.66538,34.11909]]],[[[126.91993,34.16698],[126.92237,34.17235],[126.92498,34.18488],[126.91896,34.1905],[126.90935,34.1977],[126.89926,34.20966],[126.88217,34.21328],[126.86793,34.20746],[126.86085,34.20185],[126.85694,34.19428],[126.85532,34.18476],[126.84913,34.17438],[126.8532,34.159],[126.90187,34.15241],[126.91358,34.15766],[126.91993,34.16698]]],[[[126.58888,34.1791],[126.58399,34.18627],[126.59205,34.18765],[126.60662,34.1883],[126.61012,34.19969],[126.61704,34.20454],[126.61622,34.21328],[126.55974,34.23452],[126.54982,34.19123],[126.56861,34.17902],[126.58383,34.1756],[126.58888,34.1791]]],[[[126.03321,34.31489],[126.02166,34.29564],[126.02866,34.28734],[126.04933,34.28022],[126.08465,34.28388],[126.08937,34.28962],[126.08774,34.29682],[126.08872,34.30793],[126.08204,34.31074],[126.06764,34.30891],[126.03321,34.31489]]],[[[126.84352,34.35004],[126.75758,34.33613],[126.78875,34.32095],[126.8283,34.3229],[126.83367,34.31684],[126.8357,34.30915],[126.84059,34.30337],[126.88307,34.31794],[126.89332,34.34125],[126.84352,34.35004]]],[[[127.04591,34.35765],[127.0254,34.38133],[126.99147,34.35627],[127.04558,34.33544],[127.03883,34.31289],[127.04908,34.31672],[127.06674,34.32819],[127.07399,34.33417],[127.06788,34.33706],[127.06528,34.33979],[127.09693,34.3378],[127.0774,34.35932],[127.06739,34.35838],[127.05372,34.3548],[127.04591,34.35765]]],[[[126.74562,34.3242],[126.70997,34.39289],[126.69923,34.39891],[126.68775,34.40204],[126.67018,34.40058],[126.6644,34.39948],[126.65366,34.39521],[126.64576,34.38557],[126.64487,34.3371],[126.65187,34.32978],[126.66358,34.32343],[126.67661,34.32046],[126.68702,34.3227],[126.69565,34.32079],[126.69809,34.31342],[126.68881,34.30756],[126.68898,34.30109],[126.76808,34.28921],[126.77149,34.2919],[126.76588,34.30305],[126.76393,34.30923],[126.74562,34.3242]]],[[[126.8602,34.39887],[126.85353,34.40689],[126.84588,34.41397],[126.8366,34.41865],[126.83546,34.43806],[126.82301,34.43985],[126.80226,34.43578],[126.78248,34.42674],[126.75318,34.38695],[126.75758,34.38325],[126.76246,34.38296],[126.76726,34.38003],[126.76938,34.37132],[126.76922,34.36099],[126.77573,34.35472],[126.7811,34.35786],[126.78403,34.3686],[126.7933,34.37889],[126.81967,34.38906],[126.82472,34.39521],[126.83326,34.39696],[126.85377,34.39175],[126.86109,34.39277],[126.8602,34.39887]]],[[[127.48683,34.46385],[127.47283,34.46678],[127.46534,34.47036],[127.45826,34.47289],[127.45216,34.45303],[127.48894,34.41694],[127.49464,34.41425],[127.51059,34.41828],[127.52882,34.42805],[127.53639,34.43476],[127.53639,34.44066],[127.53191,34.45059],[127.50994,34.47004],[127.48683,34.46385]]],[[[127.21022,34.42398],[127.22869,34.43024],[127.24187,34.44546],[127.24513,34.46406],[127.23422,34.48029],[127.22055,34.48574],[127.20427,34.48676],[127.17302,34.48371],[127.14031,34.47871],[127.12436,34.47333],[127.11052,34.46491],[127.11988,34.4597],[127.12379,34.45523],[127.12281,34.45059],[127.11736,34.44501],[127.11736,34.43757],[127.14129,34.4243],[127.15301,34.41958],[127.16896,34.41771],[127.21022,34.42398]]],[[[127.77931,34.48847],[127.79176,34.49201],[127.79396,34.49824],[127.78956,34.50397],[127.78297,34.50698],[127.77491,34.50821],[127.77442,34.51179],[127.77622,34.51878],[127.76108,34.54312],[127.74806,34.55109],[127.72975,34.54906],[127.7129,34.54243],[127.70753,34.53388],[127.73219,34.50849],[127.77931,34.48847]]],[[[126.3156,34.53828],[126.28045,34.5683],[126.26393,34.57575],[126.24773,34.57477],[126.24106,34.56647],[126.26677,34.54975],[126.27442,34.53726],[126.26832,34.52204],[126.25416,34.51435],[126.23829,34.51569],[126.22657,34.52757],[126.22381,34.51341],[126.18702,34.49421],[126.18116,34.48652],[126.17213,34.46491],[126.14422,34.4632],[126.11573,34.43618],[126.10328,34.40278],[126.12428,34.38231],[126.12428,34.40347],[126.15309,34.3885],[126.15846,34.38231],[126.15561,34.37718],[126.1482,34.37108],[126.14259,34.36376],[126.14479,34.35505],[126.15642,34.35261],[126.1985,34.35554],[126.20997,34.35879],[126.30519,34.40168],[126.30926,34.41771],[126.30926,34.42398],[126.31715,34.41991],[126.33424,34.40656],[126.33595,34.40347],[126.34588,34.409],[126.35385,34.41958],[126.37355,34.45441],[126.37892,34.46931],[126.3816,34.48469],[126.38006,34.49844],[126.35035,34.53815],[126.34946,34.54682],[126.32683,34.53506],[126.32228,34.53384],[126.3156,34.53828]]],[[[126.05763,34.53254],[126.09938,34.55866],[126.10027,34.5683],[126.10336,34.57941],[126.09938,34.60545],[126.08709,34.61115],[126.07984,34.61738],[126.06764,34.62547],[126.06007,34.62079],[126.06642,34.60399],[126.07643,34.59077],[126.08131,34.58076],[126.07635,34.57099],[126.03126,34.55638],[126.05348,34.55231],[126.05445,34.5489],[126.03159,34.53905],[126.03517,34.53392],[126.04672,34.53115],[126.05763,34.53254]]],[[[126.0381,34.56948],[126.04859,34.57005],[126.05763,34.57258],[126.06039,34.5843],[126.05201,34.59833],[126.04135,34.61115],[126.02858,34.63422],[126.02019,34.62543],[126.01661,34.60615],[126.02052,34.57144],[126.02858,34.56586],[126.0381,34.56948]]],[[[128.27125,34.63231],[128.27117,34.6385],[128.23951,34.65241],[128.23276,34.65103],[128.22877,34.64785],[128.22836,34.6424],[128.22568,34.63784],[128.22527,34.63284],[128.22967,34.63007],[128.23341,34.62938],[128.2378,34.62576],[128.23878,34.62059],[128.23528,34.6142],[128.23626,34.61046],[128.28175,34.61986],[128.28606,34.62222],[128.29566,34.63198],[128.29713,34.63732],[128.29461,34.63955],[128.27581,34.6319],[128.27125,34.63231]]],[[[125.43393,34.69554],[125.42945,34.69843],[125.42123,34.69709],[125.41285,34.69196],[125.40561,34.68256],[125.39894,34.67182],[125.3934,34.65965],[125.39234,34.64631],[125.39877,34.63198],[125.40854,34.62861],[125.45924,34.68684],[125.43393,34.69554]]],[[[127.79786,34.57974],[127.80787,34.5882],[127.81511,34.60196],[127.81813,34.61616],[127.81723,34.63076],[127.80877,34.65583],[127.80161,34.67048],[127.79249,34.68236],[127.78207,34.68456],[127.7942,34.69379],[127.79933,34.70482],[127.79664,34.71418],[127.7859,34.71817],[127.77345,34.71699],[127.76254,34.71284],[127.76075,34.70474],[127.77589,34.69147],[127.76832,34.66608],[127.76498,34.6601],[127.74627,34.64842],[127.74187,34.64362],[127.73585,34.62523],[127.74,34.61367],[127.7754,34.58397],[127.78663,34.57901],[127.79786,34.57974]]],[[[125.99903,34.67744],[126.00318,34.68476],[126.00538,34.69261],[126.00408,34.70026],[125.97674,34.72826],[125.91603,34.68765],[125.92506,34.67097],[125.95973,34.65668],[125.96998,34.65591],[125.9769,34.6564],[125.9839,34.66063],[125.99903,34.67744]]],[[[126.11785,34.76996],[126.06959,34.76968],[126.10426,34.72199],[126.13844,34.72346],[126.14772,34.71235],[126.15943,34.70279],[126.17213,34.7038],[126.17791,34.71336],[126.1775,34.72407],[126.17026,34.74995],[126.11785,34.76996]]],[[[126.00717,34.78095],[126.00441,34.78718],[126.00074,34.79011],[125.99594,34.79076],[125.91285,34.77692],[125.90187,34.77106],[125.89389,34.76227],[125.89088,34.74982],[125.89259,34.73664],[125.8978,34.72602],[125.90642,34.71931],[125.91814,34.71817],[125.93002,34.7226],[125.93873,34.73143],[125.9441,34.74323],[125.94614,34.75666],[125.95167,34.75926],[125.9642,34.75707],[125.97788,34.75715],[125.9865,34.76655],[125.99155,34.76411],[126.00294,34.76146],[126.00758,34.75971],[126.00717,34.78095]]],[[[126.15821,34.76447],[126.16871,34.7923],[126.16627,34.79645],[126.15903,34.80459],[126.14942,34.80809],[126.09254,34.78758],[126.14625,34.76187],[126.15821,34.76447]]],[[[128.37901,34.82287],[128.36725,34.83027],[128.35183,34.83542],[128.34009,34.83297],[128.33205,34.8257],[128.38009,34.8104],[128.37827,34.80279],[128.3687,34.79654],[128.3733,34.79349],[128.38621,34.79192],[128.38896,34.78536],[128.38699,34.7788],[128.39536,34.77854],[128.39928,34.77072],[128.40653,34.7631],[128.42308,34.76325],[128.43329,34.77378],[128.43733,34.77981],[128.4291,34.7854],[128.42089,34.78672],[128.4206,34.78924],[128.42457,34.79122],[128.43464,34.78788],[128.43898,34.7939],[128.43533,34.79871],[128.44063,34.80674],[128.438,34.81957],[128.42823,34.82745],[128.37901,34.82287]]],[[[128.24147,34.79999],[128.24073,34.80707],[128.24578,34.80927],[128.25652,34.80927],[128.26051,34.81464],[128.25489,34.82241],[128.23992,34.83617],[128.22731,34.83857],[128.21388,34.83023],[128.20704,34.82103],[128.20582,34.81562],[128.24147,34.79999]]],[[[126.14226,34.87914],[126.13592,34.87861],[126.12281,34.87881],[126.11329,34.87116],[126.11524,34.85944],[126.11256,34.85342],[126.06715,34.85053],[126.06414,34.8426],[126.0962,34.79877],[126.10524,34.79816],[126.1159,34.80313],[126.11915,34.81265],[126.11891,34.8238],[126.12517,34.82966],[126.13502,34.82929],[126.1421,34.83291],[126.14454,34.84235],[126.13966,34.8579],[126.15309,34.86498],[126.15203,34.87116],[126.14723,34.87686],[126.14226,34.87914]]],[[[128.01344,34.86913],[128.01246,34.87832],[128.01596,34.88935],[128.02296,34.9055],[128.01783,34.91657],[128.00196,34.91303],[127.96363,34.85977],[127.97242,34.84553],[127.98732,34.83808],[128.0018,34.83666],[128.02654,34.84321],[128.07179,34.8334],[128.08237,34.8356],[128.04591,34.89362],[128.01344,34.86913]]],[[[126.35963,34.85859],[126.34067,34.86408],[126.32651,34.8642],[126.32008,34.86587],[126.3187,34.87055],[126.31813,34.87645],[126.32,34.88109],[126.33522,34.88939],[126.34392,34.89033],[126.34523,34.89623],[126.33253,34.90672],[126.31471,34.91413],[126.29737,34.91755],[126.28647,34.91291],[126.28981,34.90302],[126.29762,34.89423],[126.29713,34.88691],[126.29265,34.88068],[126.23072,34.85456],[126.23683,34.84805],[126.24871,34.84471],[126.26352,34.84667],[126.27662,34.85196],[126.30616,34.8559],[126.31031,34.85407],[126.33823,34.84146],[126.34083,34.83747],[126.33766,34.83173],[126.33131,34.82583],[126.34205,34.8225],[126.36166,34.83739],[126.35963,34.85859]]],[[[126.08912,34.91132],[126.08123,34.92259],[126.07008,34.9289],[126.06031,34.92691],[126.056,34.91364],[126.05226,34.90754],[126.04396,34.90742],[126.03443,34.90957],[126.02801,34.9099],[126.01433,34.89964],[125.99635,34.87604],[125.9865,34.86896],[125.9865,34.86274],[125.99879,34.86294],[126.03142,34.86896],[126.0691,34.86274],[126.08074,34.871],[126.08839,34.88296],[126.09148,34.89692],[126.08912,34.91132]]],[[[126.24643,34.91625],[126.25017,34.91885],[126.25343,34.92919],[126.25318,34.9335],[126.24733,34.93545],[126.23024,34.93545],[126.22242,34.93195],[126.22039,34.92243],[126.22535,34.9134],[126.23756,34.91307],[126.24643,34.91625]]],[[[127.94988,34.82465],[127.92848,34.83055],[127.91993,34.83544],[127.91432,34.84455],[127.90968,34.86205],[127.90561,34.86896],[127.92807,34.88825],[127.93686,34.90082],[127.93824,34.91397],[127.93051,34.92646],[127.91725,34.93618],[127.90211,34.94001],[127.88893,34.93476],[127.87289,34.92447],[127.86704,34.91816],[127.86232,34.89606],[127.85629,34.89273],[127.84848,34.89155],[127.84083,34.88695],[127.82936,34.86896],[127.82667,34.85139],[127.86801,34.72187],[127.87713,34.71695],[127.8921,34.71271],[127.90626,34.71308],[127.91236,34.72187],[127.9157,34.74274],[127.92457,34.75959],[127.93767,34.76704],[127.95411,34.75971],[127.96534,34.71931],[127.97527,34.69994],[127.99155,34.70173],[128.0101,34.70881],[128.02589,34.70311],[128.04054,34.69587],[128.05592,34.69823],[128.06007,34.7084],[128.05161,34.72871],[128.05958,34.73241],[128.06528,34.73753],[128.06959,34.81501],[128.06275,34.81712],[128.02906,34.82176],[128.00587,34.81769],[127.98129,34.80976],[127.96192,34.80695],[127.94988,34.82465]]],[[[128.72389,34.95454],[128.72495,35.01895],[128.72055,35.02725],[128.70289,35.03295],[128.68751,35.02285],[128.6819,35.00462],[128.69386,34.98627],[128.62379,34.95356],[128.61061,34.9549],[128.61166,34.93891],[128.61638,34.92186],[128.62696,34.90693],[128.64552,34.89692],[128.64552,34.89069],[128.57374,34.91006],[128.53631,34.90371],[128.52329,34.89916],[128.50807,34.89102],[128.49488,34.88044],[128.48845,34.86896],[128.49155,34.84992],[128.50318,34.83552],[128.51743,34.82266],[128.52882,34.80809],[128.54469,34.81879],[128.58058,34.83185],[128.59083,34.84227],[128.6045,34.83544],[128.59913,34.81782],[128.59864,34.80223],[128.59156,34.79121],[128.56666,34.78705],[128.56039,34.78181],[128.55983,34.77025],[128.5643,34.75873],[128.5735,34.75349],[128.6045,34.76655],[128.59946,34.7519],[128.59864,34.73998],[128.60401,34.73111],[128.61817,34.72557],[128.58399,34.70515],[128.6058,34.70637],[128.67823,34.72484],[128.69386,34.73615],[128.68556,34.74384],[128.66912,34.7495],[128.65724,34.75698],[128.68637,34.80809],[128.74171,34.79072],[128.73902,34.80622],[128.72608,34.82884],[128.72055,34.84227],[128.73414,34.83755],[128.74293,34.84455],[128.74741,34.85712],[128.74855,34.86896],[128.74757,34.88581],[128.74431,34.88776],[128.73463,34.88227],[128.71437,34.87641],[128.73015,34.91039],[128.73414,34.92231],[128.73439,34.93545],[128.72999,34.94514],[128.72389,34.95454]]],[[[126.14381,35.05768],[126.13738,35.05687],[126.12965,35.05268],[126.13941,35.04645],[126.13217,35.04194],[126.13356,35.03974],[126.17237,35.02363],[126.17742,35.02595],[126.18165,35.02912],[126.17416,35.05317],[126.16529,35.05524],[126.15252,35.05439],[126.14381,35.05768]]],[[[128.8318,34.9938],[128.83839,35.00121],[128.84278,35.02188],[128.84327,35.04719],[128.83644,35.0598],[128.82643,35.06224],[128.81495,35.06127],[128.80437,35.05634],[128.80161,35.04914],[128.8318,34.9938]]],[[[126.18922,35.10224],[126.1775,35.10578],[126.16481,35.10228],[126.1587,35.09422],[126.16944,35.07368],[126.23609,35.05195],[126.23422,35.04706],[126.23406,35.03832],[126.23805,35.03242],[126.26108,35.02456],[126.25514,35.05638],[126.21852,35.07661],[126.23854,35.09186],[126.23601,35.09837],[126.18922,35.10224]]],[[[126.11427,35.05931],[126.12281,35.06981],[126.13404,35.0788],[126.14479,35.08246],[126.13136,35.10025],[126.12696,35.11054],[126.12778,35.12055],[126.13478,35.12897],[126.16521,35.1435],[126.14991,35.14688],[126.12941,35.14289],[126.11134,35.13329],[126.10377,35.1197],[126.09889,35.11327],[126.0879,35.10887],[126.07602,35.10562],[126.0691,35.10236],[126.06381,35.09309],[126.056,35.06135],[126.10524,35.05003],[126.11061,35.05117],[126.11427,35.05931]]],[[[126.3073,35.61664],[126.27613,35.61286],[126.25652,35.59601],[126.26149,35.59341],[126.26295,35.59178],[126.25245,35.58731],[126.2505,35.58096],[126.25367,35.57437],[126.25807,35.57062],[126.26385,35.57168],[126.30567,35.60322],[126.30942,35.61066],[126.3073,35.61664]]],[[[126.4048,36.47964],[126.39064,36.48603],[126.3838,36.48713],[126.3838,36.49331],[126.4048,36.49331],[126.39591,36.50579],[126.38457,36.5112],[126.37941,36.51838],[126.3838,36.52652],[126.38111,36.53628],[126.36427,36.56697],[126.36337,36.57384],[126.37099,36.57875],[126.37534,36.58609],[126.37355,36.59223],[126.36024,36.60936],[126.34118,36.60413],[126.32346,36.59089],[126.31482,36.58179],[126.32515,36.55386],[126.32976,36.53172],[126.33361,36.49509],[126.32814,36.47109],[126.33864,36.47561],[126.34327,36.46662],[126.35694,36.47964],[126.36378,36.47346],[126.34571,36.45331],[126.34262,36.43838],[126.35377,36.43407],[126.37761,36.44619],[126.37356,36.43734],[126.36587,36.43164],[126.36105,36.42632],[126.36378,36.41136],[126.37818,36.40949],[126.42262,36.41153],[126.43214,36.40795],[126.42644,36.42357],[126.41293,36.44033],[126.40541,36.45884],[126.40269,36.46839],[126.40369,36.47334],[126.4048,36.47964]]],[[[126.15919,37.23192],[126.10475,37.26752],[126.09742,37.25943],[126.09181,37.24592],[126.08872,37.22956],[126.08863,37.22598],[126.09278,37.22484],[126.09986,37.22801],[126.10255,37.22866],[126.10515,37.22358],[126.11166,37.21454],[126.12159,37.21092],[126.13331,37.21235],[126.14234,37.2154],[126.15504,37.22573],[126.15919,37.23192]]],[[[126.4782,37.2416],[126.4983,37.26142],[126.4944,37.2735],[126.48406,37.279],[126.46119,37.28059],[126.44353,37.2731],[126.43531,37.26398],[126.43344,37.25104],[126.43572,37.23843],[126.44223,37.23517],[126.45045,37.23583],[126.45818,37.23127],[126.46949,37.23347],[126.4782,37.2416]]],[[[126.57374,37.279],[126.57667,37.28767],[126.5735,37.28848],[126.55942,37.27863],[126.54298,37.28498],[126.54078,37.28295],[126.54802,37.27631],[126.55543,37.26606],[126.5608,37.25129],[126.53932,37.19807],[126.56251,37.20038],[126.61354,37.23281],[126.61883,37.24201],[126.61638,37.25056],[126.61394,37.25519],[126.57374,37.279]]],[[[126.57644,37.50237],[126.51483,37.53435],[126.50066,37.53019],[126.49371,37.50778],[126.47338,37.49926],[126.45133,37.49968],[126.41889,37.49686],[126.35551,37.46622],[126.35818,37.46101],[126.36911,37.45274],[126.37133,37.44731],[126.36497,37.44229],[126.37573,37.44014],[126.3832,37.43745],[126.38939,37.44132],[126.39341,37.44555],[126.39949,37.44492],[126.42046,37.42236],[126.42443,37.42157],[126.43359,37.42241],[126.44341,37.42063],[126.48701,37.4468],[126.49398,37.45659],[126.50657,37.46557],[126.58307,37.49038],[126.58058,37.49563],[126.57644,37.50237]]],[[[130.89674,37.46312],[130.90838,37.48192],[130.91944,37.5102],[130.92066,37.53559],[130.90358,37.54584],[130.8143,37.52261],[130.80584,37.50739],[130.81105,37.48701],[130.82748,37.47126],[130.85222,37.45946],[130.8777,37.45551],[130.89674,37.46312]]],[[[125.69361,37.65396],[125.70314,37.66144],[125.70623,37.67231],[125.69923,37.67813],[125.68824,37.67927],[125.68043,37.67829],[125.67921,37.66966],[125.68458,37.65729],[125.68784,37.65176],[125.69361,37.65396]]],[[[126.37013,37.65835],[126.38071,37.66918],[126.37875,37.6787],[126.33668,37.70991],[126.32618,37.7425],[126.32374,37.74555],[126.32,37.74722],[126.31422,37.74608],[126.28199,37.69929],[126.34986,37.65738],[126.37013,37.65835]]],[[[126.27654,37.81151],[126.26051,37.81476],[126.24643,37.81175],[126.23414,37.80231],[126.22267,37.77473],[126.22047,37.77131],[126.22446,37.76044],[126.23414,37.76065],[126.24537,37.76537],[126.25457,37.76822],[126.29623,37.76114],[126.31821,37.76227],[126.33595,37.7744],[126.34254,37.79214],[126.33326,37.80044],[126.31495,37.80272],[126.29526,37.80248],[126.27654,37.81151]]],[[[126.52906,37.6249],[126.542,37.63105],[126.53883,37.63544],[126.53321,37.64614],[126.52768,37.65152],[126.53094,37.6599],[126.52768,37.69587],[126.52556,37.70327],[126.51629,37.71678],[126.51401,37.72354],[126.51637,37.76724],[126.4253,37.82445],[126.40707,37.82071],[126.38347,37.79902],[126.37379,37.79613],[126.36915,37.71906],[126.41668,37.65184],[126.40821,37.6413],[126.40089,37.63744],[126.37013,37.63105],[126.39064,37.60928],[126.41017,37.60204],[126.47608,37.61107],[126.48365,37.60741],[126.49415,37.59837],[126.50017,37.59618],[126.50782,37.59687],[126.51783,37.60383],[126.52906,37.6249]]],[[[124.7142,37.80956],[124.71827,37.81818],[124.72136,37.82844],[124.72584,37.83739],[124.72446,37.84365],[124.71648,37.84691],[124.70916,37.84756],[124.67351,37.81704],[124.68458,37.79999],[124.7142,37.80956]]],[[[124.73268,37.98045],[124.70493,37.98867],[124.64942,37.97329],[124.62403,37.98045],[124.61362,37.94505],[124.64405,37.92451],[124.68491,37.91999],[124.70533,37.93268],[124.69988,37.93651],[124.68816,37.93818],[124.6784,37.94204],[124.67799,37.95254],[124.68328,37.95454],[124.70875,37.95628],[124.7282,37.94701],[124.74204,37.95502],[124.74366,37.96967],[124.73268,37.98045]]],[[[128.47446,38.42609],[128.45069,38.47411],[128.44142,38.5058],[128.39478,38.57807],[128.36492,38.62434],[128.30837,38.60134],[128.28109,38.58442],[128.27478,38.5715],[128.27696,38.55406],[128.28543,38.51985],[128.28109,38.48437],[128.26807,38.45352],[128.24874,38.42577],[128.22559,38.39978],[128.17236,38.35595],[128.10849,38.3235],[128.03986,38.30428],[127.97175,38.30004],[127.86685,38.30485],[127.80076,38.29392],[127.75373,38.32536],[127.56082,38.31208],[127.50207,38.29808],[127.47194,38.29591],[127.37711,38.31851],[127.25381,38.31004],[127.22198,38.3127],[127.15749,38.30722],[127.09046,38.28586],[127.02675,38.25446],[126.97192,38.21891],[126.91983,38.1346],[126.90334,38.11959],[126.86479,38.09602],[126.84733,38.08202],[126.76191,37.979],[126.72211,37.95394],[126.69633,37.94619],[126.67783,37.94458],[126.66579,37.93763],[126.66052,37.91381],[126.66746,37.82781],[126.68263,37.836],[126.69247,37.8371],[126.69996,37.82966],[126.68946,37.81367],[126.68491,37.79361],[126.70053,37.74299],[126.69557,37.72175],[126.6788,37.68627],[126.73642,37.65331],[126.75522,37.63788],[126.73105,37.63906],[126.69215,37.65204],[126.66147,37.67243],[126.66188,37.69587],[126.66733,37.70881],[126.66879,37.72773],[126.66684,37.74616],[126.66188,37.75796],[126.64853,37.76504],[126.63551,37.76301],[126.62086,37.75755],[126.60328,37.75454],[126.54819,37.77017],[126.53492,37.76822],[126.56051,37.60735],[126.60379,37.5493],[126.5989,37.52511],[126.60111,37.5068],[126.60645,37.49681],[126.62703,37.49859],[126.63068,37.5073],[126.64416,37.50439],[126.59502,37.47227],[126.59829,37.45793],[126.59599,37.43966],[126.61241,37.43274],[126.63031,37.42501],[126.63863,37.41379],[126.62538,37.39792],[126.61509,37.37974],[126.64034,37.36439],[126.66475,37.38917],[126.71716,37.38384],[126.72005,37.37705],[126.70687,37.36647],[126.68749,37.34403],[126.68979,37.33249],[126.73331,37.30617],[126.85214,37.2862],[126.85987,37.28213],[126.86598,37.27607],[126.8707,37.26789],[126.84864,37.26533],[126.83302,37.27285],[126.81918,37.2744],[126.80234,37.2543],[126.79737,37.23286],[126.79249,37.22346],[126.78199,37.22016],[126.77247,37.22394],[126.76759,37.23233],[126.76637,37.24315],[126.76759,37.2543],[126.75221,37.24828],[126.73911,37.25165],[126.72584,37.25821],[126.70997,37.2617],[126.65846,37.2543],[126.66651,37.24185],[126.67319,37.22842],[126.68019,37.21768],[126.68906,37.21332],[126.71583,37.21629],[126.719,37.21288],[126.66529,37.17548],[126.66847,37.16181],[126.67774,37.15949],[126.70688,37.16486],[126.69215,37.14826],[126.68605,37.13931],[126.68564,37.13011],[126.69215,37.12499],[126.70289,37.1247],[126.71445,37.128],[126.72364,37.13386],[126.75929,37.1647],[126.77858,37.17569],[126.80234,37.18537],[126.80226,37.17316],[126.80738,37.16527],[126.81691,37.16079],[126.82984,37.15868],[126.8506,37.17304],[126.86451,37.1791],[126.8707,37.17548],[126.86915,37.15697],[126.86354,37.1503],[126.83652,37.14444],[126.81121,37.14412],[126.79418,37.13892],[126.77827,37.1328],[126.76445,37.11766],[126.75286,37.10069],[126.75522,37.04881],[126.80128,37.03775],[126.82057,37.04169],[126.83969,37.04487],[126.84913,37.0373],[126.85865,37.04133],[126.86329,37.05878],[126.86508,37.07486],[126.87045,37.09077],[126.87916,37.1],[126.89047,37.09593],[126.88315,37.06957],[126.89308,37.05012],[126.90675,37.03315],[126.91098,37.01411],[126.8707,37.02147],[126.88014,37.01569],[126.88429,37.01411],[126.88429,37.00788],[126.82441,37.00262],[126.8379,36.9759],[126.87338,36.94798],[126.91269,36.92963],[126.94581,36.92593],[126.96909,36.93203],[126.97633,36.93903],[126.97316,36.96996],[126.98219,36.98017],[127.042,36.9936],[127.0394,36.982],[126.99415,36.96686],[126.99594,36.96479],[127.00522,36.95694],[127.00717,36.95262],[127.00034,36.92837],[126.98951,36.91861],[126.97446,36.91291],[126.96169,36.90511],[126.94247,36.89338],[126.89902,36.87934],[126.88063,36.8769],[126.8602,36.86957],[126.87045,36.85277],[126.9048,36.82225],[126.88356,36.82437],[126.86329,36.82909],[126.87159,36.80402],[126.86655,36.78978],[126.8567,36.77643],[126.85084,36.75397],[126.82984,36.77509],[126.84628,36.77912],[126.84913,36.78803],[126.84067,36.81916],[126.8318,36.83112],[126.82984,36.83934],[126.83082,36.84724],[126.83546,36.86083],[126.83652,36.86693],[126.83432,36.89549],[126.83017,36.91022],[126.82301,36.91844],[126.81275,36.91694],[126.79396,36.89753],[126.78199,36.89118],[126.7977,36.93439],[126.79623,36.95576],[126.77516,36.97309],[126.75777,36.98222],[126.68154,36.9947],[126.66504,36.98852],[126.65579,36.97459],[126.64945,36.96606],[126.64538,36.95795],[126.64918,36.93342],[126.64649,36.92512],[126.6421,36.91771],[126.63111,36.91161],[126.63478,36.92805],[126.63356,36.9374],[126.62363,36.95262],[126.62167,36.95978],[126.63138,36.96893],[126.6361,36.98245],[126.62609,36.9961],[126.535,37.04926],[126.51905,37.05541],[126.50074,37.055],[126.50292,37.03952],[126.51225,37.01643],[126.53297,37.00092],[126.55201,36.9936],[126.56617,36.99079],[126.57301,36.98436],[126.57211,36.97748],[126.56275,36.97309],[126.5503,36.97313],[126.54005,36.97687],[126.53159,36.9829],[126.51564,36.99885],[126.50538,37.00658],[126.49684,37.0078],[126.49342,36.99702],[126.49781,36.99421],[126.55909,36.94237],[126.58261,36.89802],[126.56837,36.8985],[126.51913,36.9479],[126.4839,36.8415],[126.47657,36.84492],[126.46925,36.85399],[126.46591,36.86693],[126.46591,36.91161],[126.47853,36.93586],[126.47389,36.94221],[126.47275,36.9492],[126.4686,36.95759],[126.45883,36.95775],[126.44752,36.95283],[126.43873,36.94579],[126.43238,36.96198],[126.43824,36.97333],[126.44785,36.982],[126.45289,36.99018],[126.4454,37.0034],[126.42774,37.00837],[126.39088,37.00788],[126.39088,37.00043],[126.39527,36.99291],[126.39145,36.98981],[126.35304,36.99999],[126.34311,36.99445],[126.3357,36.98676],[126.35401,36.98786],[126.3694,36.98412],[126.37648,36.97492],[126.36988,36.95942],[126.35548,36.96776],[126.35068,36.9645],[126.35385,36.95523],[126.36354,36.94579],[126.37648,36.9416],[126.40268,36.94123],[126.41139,36.93891],[126.4192,36.92231],[126.41554,36.89985],[126.40138,36.88142],[126.37729,36.8769],[126.40455,36.857],[126.38453,36.85293],[126.37412,36.84955],[126.36988,36.84618],[126.36533,36.83535],[126.35548,36.84048],[126.33937,36.857],[126.32871,36.84699],[126.33603,36.82465],[126.3567,36.78876],[126.32789,36.80463],[126.31528,36.80435],[126.29843,36.7919],[126.29127,36.78925],[126.28598,36.79458],[126.28273,36.8037],[126.28175,36.81232],[126.28549,36.81493],[126.30348,36.82437],[126.30893,36.82909],[126.30812,36.83308],[126.30185,36.84781],[126.30152,36.857],[126.30763,36.86567],[126.31739,36.87397],[126.3235,36.88325],[126.31105,36.90957],[126.30665,36.93146],[126.30592,36.95307],[126.30893,36.96686],[126.28566,36.96113],[126.27524,36.87474],[126.26857,36.87104],[126.24374,36.87067],[126.22999,36.87303],[126.22755,36.87979],[126.2339,36.9042],[126.20948,36.89716],[126.19223,36.88593],[126.19077,36.87202],[126.21339,36.857],[126.19687,36.83568],[126.19874,36.82323],[126.21445,36.81753],[126.24,36.81607],[126.23243,36.80419],[126.22071,36.80174],[126.19223,36.80858],[126.20289,36.7932],[126.21339,36.78132],[126.18539,36.78132],[126.16562,36.81607],[126.12818,36.7613],[126.13014,36.73697],[126.12892,36.7119],[126.13282,36.70384],[126.14454,36.71239],[126.15016,36.72394],[126.15309,36.74885],[126.15821,36.76081],[126.17115,36.75226],[126.18727,36.74848],[126.20265,36.74242],[126.21339,36.72671],[126.21363,36.71162],[126.20314,36.70588],[126.16188,36.7062],[126.15699,36.70205],[126.15854,36.69286],[126.16269,36.68354],[126.16562,36.6789],[126.17774,36.67324],[126.22926,36.68472],[126.25571,36.71157],[126.27418,36.71988],[126.28175,36.69257],[126.27296,36.67316],[126.30234,36.63443],[126.28858,36.61001],[126.29526,36.58271],[126.30397,36.59309],[126.31479,36.60163],[126.32773,36.60757],[126.34303,36.61001],[126.32618,36.62836],[126.32472,36.63662],[126.3357,36.64411],[126.32911,36.66059],[126.31088,36.68399],[126.30152,36.69937],[126.32431,36.69965],[126.33155,36.71137],[126.33399,36.72736],[126.34303,36.74038],[126.35914,36.74266],[126.36988,36.73233],[126.36642,36.70697],[126.37791,36.70258],[126.37197,36.68308],[126.36715,36.62907],[126.38639,36.61889],[126.40573,36.6182],[126.42424,36.60658],[126.43329,36.61573],[126.44391,36.63808],[126.43951,36.66427],[126.44688,36.68376],[126.44564,36.70072],[126.43857,36.70942],[126.438,36.71646],[126.47958,36.74714],[126.48268,36.73835],[126.48732,36.73216],[126.50074,36.71988],[126.47735,36.71689],[126.46969,36.70459],[126.47454,36.68789],[126.49851,36.68427],[126.50803,36.67041],[126.49396,36.66132],[126.4838,36.6496],[126.49986,36.63684],[126.51171,36.63485],[126.51987,36.62617],[126.51387,36.61539],[126.51231,36.60321],[126.49145,36.60376],[126.47146,36.59629],[126.45766,36.5956],[126.47033,36.5402],[126.51393,36.52879],[126.50424,36.51667],[126.48341,36.49702],[126.48276,36.48583],[126.48854,36.46686],[126.49765,36.44839],[126.50758,36.43867],[126.52345,36.44111],[126.54501,36.46699],[126.55909,36.47346],[126.61744,36.47346],[126.59796,36.46507],[126.55678,36.45583],[126.53754,36.43322],[126.5169,36.42819],[126.49878,36.42011],[126.51376,36.39769],[126.50074,36.39769],[126.50074,36.39094],[126.5088,36.3852],[126.5206,36.3736],[126.52744,36.36978],[126.56039,36.36961],[126.57618,36.36628],[126.58261,36.35301],[126.57333,36.3426],[126.52882,36.33389],[126.51376,36.32266],[126.52906,36.31611],[126.57154,36.30561],[126.58261,36.29466],[126.56796,36.28681],[126.55592,36.26626],[126.53492,36.21963],[126.54111,36.21255],[126.54859,36.20596],[126.58009,36.19937],[126.58847,36.1916],[126.60328,36.17182],[126.56134,36.18159],[126.53136,36.17394],[126.4974,36.16002],[126.49342,36.1308],[126.50025,36.12572],[126.50358,36.13219],[126.50965,36.15102],[126.52917,36.15351],[126.55177,36.14182],[126.55228,36.13081],[126.55857,36.13076],[126.57187,36.13698],[126.58945,36.1308],[126.61233,36.09899],[126.62485,36.09561],[126.63852,36.09097],[126.64503,36.0847],[126.63111,36.07559],[126.67726,36.00593],[126.69247,35.9999],[126.71339,36.00739],[126.73569,36.01044],[126.75441,36.01773],[126.77133,36.03091],[126.79151,36.04218],[126.81208,36.0473],[126.8707,36.06196],[126.86891,36.04751],[126.84913,36.03604],[126.80234,36.02094],[126.76547,35.99828],[126.74448,35.98957],[126.52142,35.97052],[126.52574,35.94036],[126.56974,35.94595],[126.59958,35.93765],[126.60881,35.93113],[126.61184,35.90744],[126.61229,35.89022],[126.66009,35.88716],[126.70851,35.88459],[126.73316,35.88557],[126.80665,35.90965],[126.80983,35.91169],[126.82163,35.90815],[126.83229,35.90062],[126.83749,35.8933],[126.8331,35.89004],[126.81935,35.88813],[126.79713,35.86286],[126.78492,35.86205],[126.7291,35.86498],[126.71998,35.86327],[126.71168,35.85773],[126.70338,35.84846],[126.70069,35.83983],[126.79103,35.79145],[126.78956,35.77969],[126.78614,35.76838],[126.78199,35.76024],[126.77133,35.77521],[126.75538,35.77847],[126.73313,35.79242],[126.69802,35.79594],[126.66215,35.793],[126.65612,35.78874],[126.64475,35.7829],[126.62939,35.77548],[126.62513,35.74563],[126.59717,35.71389],[126.56035,35.69739],[126.53033,35.68316],[126.51142,35.66553],[126.49098,35.64912],[126.46756,35.63964],[126.46674,35.62887],[126.46374,35.60197],[126.51316,35.5769],[126.65504,35.59577],[126.67018,35.58869],[126.67945,35.57172],[126.69247,35.53437],[126.67905,35.53803],[126.66074,35.55646],[126.64289,35.57277],[126.62298,35.56861],[126.60889,35.55206],[126.59423,35.54249],[126.56245,35.54109],[126.52528,35.53486],[126.49266,35.52533],[126.46981,35.49853],[126.44272,35.44693],[126.42555,35.41767],[126.41822,35.39403],[126.45851,35.34545],[126.44955,35.34496],[126.4319,35.34935],[126.41725,35.36489],[126.41139,35.36986],[126.38941,35.34247],[126.38071,35.32709],[126.38038,35.28417],[126.3567,35.26],[126.37729,35.25259],[126.35914,35.24897],[126.33839,35.24803],[126.32008,35.24457],[126.30893,35.2333],[126.33741,35.23359],[126.35068,35.23534],[126.36354,35.23949],[126.36158,35.22565],[126.36671,35.21772],[126.37729,35.21162],[126.36354,35.18797],[126.3711,35.17353],[126.4039,35.14216],[126.41415,35.1197],[126.4524,35.10029],[126.45289,35.08246],[126.45029,35.0666],[126.42506,35.01976],[126.4144,35.02875],[126.40724,35.03897],[126.40561,35.04995],[126.41139,35.06135],[126.36533,35.07404],[126.36166,35.0773],[126.36069,35.08295],[126.3567,35.09614],[126.35361,35.09785],[126.34897,35.09642],[126.34498,35.09642],[126.35141,35.13597],[126.35011,35.14558],[126.34303,35.15697],[126.33497,35.1341],[126.32789,35.12263],[126.3152,35.11595],[126.30722,35.13178],[126.28907,35.13939],[126.26865,35.13715],[126.25424,35.12344],[126.25782,35.10684],[126.28354,35.07884],[126.27418,35.06818],[126.28834,35.05296],[126.3025,35.05337],[126.30942,35.06623],[126.30152,35.08869],[126.32065,35.08332],[126.33823,35.07014],[126.36671,35.03779],[126.37412,35.01683],[126.3462,34.99409],[126.34921,34.9726],[126.32423,34.97696],[126.313,34.97744],[126.30152,34.9726],[126.32887,34.94473],[126.32472,34.94326],[126.3152,34.93789],[126.32773,34.9311],[126.34523,34.92642],[126.36329,34.92744],[126.37729,34.93789],[126.37696,34.94725],[126.37208,34.95873],[126.37062,34.96849],[126.39999,34.98456],[126.41139,34.98627],[126.43637,34.98139],[126.43051,34.9726],[126.41163,34.96198],[126.39772,34.95148],[126.39576,34.93504],[126.4017,34.91547],[126.41261,34.89875],[126.42506,34.89069],[126.41212,34.88133],[126.4087,34.87397],[126.40512,34.83723],[126.39772,34.82803],[126.37729,34.81127],[126.37013,34.80134],[126.37355,34.79072],[126.38404,34.78632],[126.40561,34.79218],[126.41932,34.79199],[126.42099,34.80231],[126.42945,34.80561],[126.45607,34.80073],[126.46925,34.8041],[126.47804,34.81045],[126.48715,34.81379],[126.50074,34.80809],[126.49659,34.8028],[126.49122,34.79239],[126.48715,34.78705],[126.49342,34.78315],[126.49342,34.78083],[126.51328,34.78229],[126.54859,34.84907],[126.54713,34.8581],[126.54054,34.87495],[126.54176,34.88325],[126.55274,34.8957],[126.56764,34.90143],[126.58139,34.89802],[126.58945,34.88325],[126.57578,34.85529],[126.57578,34.82176],[126.6277,34.82559],[126.6504,34.82217],[126.66529,34.80809],[126.65488,34.80854],[126.64658,34.80711],[126.63111,34.80073],[126.63819,34.78803],[126.61476,34.78946],[126.56894,34.80073],[126.54444,34.79572],[126.53248,34.78286],[126.53053,34.76529],[126.53492,34.74604],[126.50587,34.75104],[126.46015,34.77876],[126.42213,34.76478],[126.39233,34.76861],[126.37832,34.76389],[126.36402,34.74916],[126.36706,34.73966],[126.39018,34.7334],[126.41538,34.739],[126.43577,34.72811],[126.46534,34.72968],[126.49024,34.72557],[126.50839,34.71849],[126.54111,34.68399],[126.56275,34.67097],[126.55543,34.66352],[126.58546,34.64179],[126.60255,34.63288],[126.62363,34.62995],[126.6027,34.62553],[126.51911,34.65037],[126.54005,34.62759],[126.53571,34.62318],[126.45289,34.67097],[126.44788,34.70588],[126.40597,34.71341],[126.37861,34.71118],[126.38613,34.63584],[126.39652,34.6366],[126.4029,34.65075],[126.41611,34.65274],[126.41257,34.62977],[126.4253,34.61927],[126.435,34.60679],[126.45558,34.60309],[126.46152,34.60065],[126.47275,34.60204],[126.46461,34.58466],[126.36988,34.60887],[126.34921,34.65668],[126.34596,34.66767],[126.34425,34.67788],[126.34718,34.68789],[126.3567,34.69823],[126.32618,34.73583],[126.31959,34.74775],[126.29029,34.75023],[126.26938,34.67129],[126.27109,34.64248],[126.29184,34.62995],[126.31861,34.61913],[126.32276,34.60887],[126.31552,34.60407],[126.30551,34.60419],[126.30152,34.60887],[126.29762,34.60334],[126.29355,34.602],[126.29184,34.59911],[126.29526,34.58906],[126.29786,34.58804],[126.31861,34.57168],[126.32496,34.56965],[126.34604,34.58462],[126.38901,34.54971],[126.39088,34.53384],[126.46591,34.54068],[126.46933,34.54971],[126.47348,34.55655],[126.47958,34.5611],[126.48634,34.56094],[126.49928,34.55435],[126.50758,34.55427],[126.51393,34.55781],[126.52296,34.56708],[126.52744,34.56855],[126.53964,34.56297],[126.53932,34.55362],[126.52955,34.54295],[126.51376,34.53384],[126.54176,34.51333],[126.51686,34.51284],[126.49024,34.50861],[126.47031,34.49649],[126.46591,34.47236],[126.48194,34.47675],[126.48373,34.47016],[126.47584,34.43325],[126.48658,34.43081],[126.50148,34.42935],[126.5088,34.42723],[126.51376,34.42398],[126.51759,34.41376],[126.5149,34.40355],[126.50074,34.38231],[126.49643,34.37987],[126.49195,34.38109],[126.48854,34.38056],[126.47958,34.34882],[126.50571,34.34992],[126.51832,34.34785],[126.52744,34.34138],[126.52931,34.33002],[126.51987,34.30598],[126.52125,34.29418],[126.53281,34.29222],[126.57887,34.30475],[126.60328,34.30044],[126.63364,34.3957],[126.64479,34.40347],[126.67441,34.40965],[126.68222,34.41401],[126.68735,34.4239],[126.68751,34.43134],[126.6902,34.43594],[126.7269,34.43301],[126.72804,34.43789],[126.72706,34.44278],[126.72364,34.44501],[126.70875,34.4499],[126.72316,34.46084],[126.76149,34.47919],[126.73911,34.50267],[126.73512,34.51488],[126.76596,34.52338],[126.76564,34.53181],[126.75929,34.54385],[126.75522,34.55768],[126.75856,34.56721],[126.76694,34.57803],[126.77784,34.58649],[126.78867,34.58906],[126.80006,34.58202],[126.80665,34.56855],[126.80201,34.4704],[126.80983,34.45124],[126.89796,34.41771],[126.89234,34.42939],[126.89186,34.44013],[126.89601,34.44994],[126.9048,34.45869],[126.93141,34.4477],[126.94077,34.45458],[126.93898,34.49592],[126.99415,34.54068],[126.98666,34.5537],[126.9913,34.56436],[127.00058,34.57331],[127.00717,34.58153],[127.00904,34.59321],[127.00856,34.60423],[127.01026,34.61249],[127.09913,34.65449],[127.10719,34.6601],[127.12525,34.67975],[127.13624,34.68806],[127.19972,34.69147],[127.21372,34.70555],[127.2339,34.74824],[127.24806,34.76655],[127.27272,34.73379],[127.29078,34.72138],[127.31259,34.72899],[127.33155,34.74116],[127.33863,34.7331],[127.344,34.71528],[127.35792,34.69823],[127.35011,34.68781],[127.33644,34.66364],[127.32993,34.65668],[127.31446,34.65192],[127.30299,34.65502],[127.29444,34.66413],[127.28842,34.67719],[127.29371,34.68671],[127.292,34.69453],[127.28517,34.70063],[127.27475,34.70515],[127.24594,34.6789],[127.24057,34.67097],[127.261,34.62995],[127.26132,34.60041],[127.24667,34.58373],[127.22218,34.57636],[127.19288,34.57477],[127.20753,34.60399],[127.21241,34.62018],[127.21339,34.63687],[127.19882,34.63101],[127.19166,34.6236],[127.17921,34.60204],[127.15903,34.58002],[127.15187,34.57477],[127.12965,34.56391],[127.1233,34.55537],[127.12452,34.54068],[127.1338,34.52631],[127.14723,34.52049],[127.16293,34.51797],[127.17921,34.51333],[127.17636,34.51732],[127.17237,34.52757],[127.21201,34.54466],[127.22348,34.54682],[127.261,34.51333],[127.27508,34.48945],[127.31593,34.4449],[127.3436,34.44501],[127.33082,34.45649],[127.3278,34.47393],[127.35662,34.49196],[127.37494,34.48504],[127.39179,34.50478],[127.43922,34.54068],[127.41842,34.55528],[127.38041,34.5471],[127.37194,34.55173],[127.35792,34.55427],[127.34596,34.57502],[127.3436,34.57819],[127.34938,34.58584],[127.36305,34.5939],[127.37916,34.6],[127.3921,34.60204],[127.40675,34.59813],[127.45224,34.57477],[127.46461,34.57734],[127.48414,34.57656],[127.49444,34.58378],[127.50359,34.59132],[127.50076,34.61216],[127.49521,34.62324],[127.45224,34.63687],[127.45973,34.63825],[127.47731,34.63817],[127.48756,34.63687],[127.46616,34.66218],[127.43491,34.6787],[127.40602,34.70002],[127.3921,34.73981],[127.39487,34.7425],[127.40024,34.74364],[127.40235,34.74714],[127.39527,34.75666],[127.38526,34.7602],[127.36647,34.75397],[127.35792,34.75971],[127.36158,34.77334],[127.38307,34.78327],[127.42555,34.79442],[127.42555,34.80073],[127.40431,34.80585],[127.37851,34.81513],[127.36533,34.82404],[127.4839,34.83954],[127.52125,34.88984],[127.52589,34.88544],[127.52809,34.87983],[127.52442,34.84927],[127.53956,34.82307],[127.53663,34.81924],[127.53492,34.81322],[127.53541,34.80809],[127.55592,34.80073],[127.57179,34.77253],[127.57984,34.76313],[127.58448,34.74624],[127.57504,34.72655],[127.56202,34.70572],[127.55592,34.68456],[127.5608,34.66218],[127.57228,34.64741],[127.5901,34.63931],[127.61402,34.63687],[127.63038,34.62271],[127.64072,34.61799],[127.64527,34.62629],[127.63795,34.67097],[127.63209,34.68504],[127.62428,34.69823],[127.63795,34.69823],[127.65626,34.73127],[127.67856,34.72736],[127.70639,34.71589],[127.74155,34.72557],[127.77565,34.84907],[127.75685,34.84081],[127.73976,34.8417],[127.72145,34.84463],[127.69996,34.84227],[127.66896,34.81835],[127.6565,34.81192],[127.60117,34.85635],[127.5857,34.87922],[127.57643,34.89692],[127.57529,34.91364],[127.58066,34.93366],[127.59156,34.94644],[127.60719,34.94131],[127.62607,34.90974],[127.64112,34.89912],[127.66212,34.90681],[127.69996,34.93163],[127.70924,34.94042],[127.71323,34.94672],[127.72047,34.96516],[127.71827,34.9704],[127.71656,34.98237],[127.71925,34.99006],[127.7444,34.96019],[127.7579,34.95832],[127.79843,34.95864],[127.80499,34.95715],[127.81544,34.95482],[127.83033,34.94473],[127.89121,34.94668],[127.91212,34.96206],[127.92286,34.98753],[127.92579,35.01976],[127.93702,35.01264],[127.94337,35.00283],[127.95387,34.97883],[127.97975,34.99225],[128.00685,34.99177],[128.0193,34.99868],[128.00099,35.03408],[128.02499,35.03579],[128.04086,35.04922],[128.05372,35.06712],[128.06935,35.08246],[128.05405,35.03583],[128.05567,34.93163],[128.11769,34.92422],[128.11874,34.92036],[128.11899,34.90571],[128.1211,34.9003],[128.13941,34.89191],[128.18588,34.89362],[128.20704,34.89069],[128.20655,34.9055],[128.20859,34.92084],[128.21412,34.93293],[128.22413,34.93789],[128.24684,34.93598],[128.2579,34.93016],[128.27906,34.90681],[128.30226,34.90803],[128.3187,34.93407],[128.33505,34.94733],[128.35776,34.9099],[128.33473,34.90257],[128.32447,34.89728],[128.32651,34.88906],[128.34083,34.87271],[128.35377,34.86848],[128.41586,34.86274],[128.4109,34.85602],[128.40268,34.8548],[128.3834,34.85459],[128.38288,34.83929],[128.41293,34.83764],[128.43531,34.84317],[128.46054,34.87018],[128.47446,34.89069],[128.46095,34.90371],[128.45786,34.89387],[128.45094,34.88589],[128.44215,34.88349],[128.43295,34.89069],[128.44044,34.93163],[128.44174,34.95246],[128.44142,34.95995],[128.42001,34.98273],[128.42677,34.9925],[128.43971,34.9881],[128.45924,34.98737],[128.47877,34.99006],[128.49155,34.99592],[128.4996,35.00922],[128.49757,35.0207],[128.49155,35.0336],[128.48813,35.05117],[128.4712,35.05024],[128.37143,35.00678],[128.37143,35.01358],[128.38209,35.02261],[128.38404,35.03636],[128.38917,35.04902],[128.42848,35.05781],[128.46274,35.07197],[128.48129,35.07502],[128.46974,35.08836],[128.46909,35.0954],[128.47812,35.09907],[128.51124,35.10423],[128.52638,35.10346],[128.58033,35.08788],[128.60361,35.05663],[128.65211,35.06135],[128.64503,35.06289],[128.63266,35.06729],[128.62477,35.06818],[128.62949,35.08149],[128.62705,35.09077],[128.61036,35.1092],[128.60182,35.12124],[128.59767,35.13052],[128.59059,35.15697],[128.57789,35.17866],[128.57814,35.18936],[128.59059,35.20539],[128.60206,35.21393],[128.60792,35.21117],[128.61793,35.18488],[128.61402,35.17744],[128.62233,35.15738],[128.61793,35.14326],[128.63803,35.14985],[128.6517,35.14077],[128.66407,35.12613],[128.67994,35.11595],[128.68051,35.13142],[128.68775,35.14061],[128.6963,35.1435],[128.70045,35.13988],[128.70045,35.09614],[128.71583,35.10586],[128.72779,35.10472],[128.73869,35.08799],[128.76197,35.07939],[128.77199,35.08331],[128.78108,35.11106],[128.78777,35.10132],[128.79156,35.08295],[128.8574,35.08382],[128.88219,35.08148],[128.88925,35.10545],[128.89793,35.12131],[128.90459,35.12051],[128.90364,35.10139],[128.90459,35.0811],[128.91842,35.08188],[128.94894,35.12597],[128.95801,35.1369],[128.95036,35.07291],[128.95845,35.05039],[128.96512,35.04365],[128.97486,35.04865],[128.98511,35.05428],[128.98941,35.05269],[128.99277,35.04596],[129.0004,35.04595],[128.99801,35.06628],[128.99703,35.07573],[129.00896,35.06513],[129.01375,35.05531],[129.02186,35.05998],[129.02569,35.0795],[129.03763,35.09783],[129.06384,35.12085],[129.072,35.11262],[129.08297,35.10518],[129.10108,35.09228],[129.12347,35.10085],[129.1286,35.11415],[129.12728,35.12583],[129.1193,35.13557],[129.12026,35.14962],[129.19435,35.1555],[129.25571,35.24698],[129.25538,35.25259],[129.24973,35.26623],[129.26921,35.31677],[129.29272,35.31605],[129.32051,35.33855],[129.33988,35.34807],[129.36044,35.35358],[129.36181,35.36717],[129.35513,35.37267],[129.34679,35.38227],[129.35526,35.39457],[129.36458,35.40687],[129.3605,35.42606],[129.35922,35.44465],[129.35776,35.45181],[129.36573,35.45832],[129.37721,35.45917],[129.38746,35.46231],[129.39186,35.47573],[129.39096,35.48994],[129.38705,35.50226],[129.37892,35.51069],[129.36524,35.51325],[129.37355,35.53278],[129.38746,35.52985],[129.4004,35.51264],[129.40626,35.48969],[129.41285,35.47207],[129.42799,35.47875],[129.44443,35.49681],[129.4546,35.51325],[129.46135,35.55206],[129.46349,35.57788],[129.46728,35.59967],[129.44305,35.63609],[129.45158,35.6518],[129.47113,35.68322],[129.49765,35.74787],[129.49622,35.78507],[129.52213,35.84455],[129.53284,35.91301],[129.53559,35.93904],[129.57164,35.99712],[129.58725,36.01691],[129.58204,36.03681],[129.57496,36.05467],[129.5713,36.07184],[129.55479,36.08248],[129.54257,36.0659],[129.47901,36.00959],[129.45333,35.99329],[129.43305,35.99611],[129.41708,36.01191],[129.40194,36.02566],[129.38086,36.04149],[129.38178,36.05517],[129.39845,36.06631],[129.4083,36.06892],[129.41871,36.07298],[129.42677,36.08177],[129.43051,36.0974],[129.42514,36.10301],[129.41708,36.10757],[129.40968,36.13361],[129.4039,36.16763],[129.38233,36.20185],[129.38657,36.3227],[129.39186,36.34247],[129.4039,36.35944],[129.43483,36.38959],[129.44093,36.40795],[129.44711,36.49331],[129.42262,36.61664],[129.44093,36.65778],[129.46347,36.69245],[129.47389,36.73062],[129.4712,36.77188],[129.438,36.85615],[129.42872,36.89741],[129.41993,36.98676],[129.41269,37.01805],[129.43409,37.0611],[129.43019,37.07307],[129.37892,37.13011],[129.36012,37.17178],[129.34645,37.2475],[129.33107,37.28217],[129.28281,37.32445],[129.27589,37.33991],[129.27223,37.35586],[129.26279,37.37092],[129.23544,37.39826],[129.18995,37.46939],[129.17685,37.48017],[129.16122,37.48762],[129.1482,37.50511],[129.11899,37.58063],[129.10873,37.5974],[129.07333,37.61302],[129.06715,37.63386],[129.06691,37.65843],[129.06422,37.67886],[129.0123,37.72724],[129.00131,37.73436],[128.92384,37.80231],[128.85914,37.87678],[128.69247,38.06493],[128.67872,38.09431],[128.64283,38.1293],[128.6316,38.14496],[128.56275,38.28897],[128.47446,38.42609]]]]}},{"type":"Feature","properties":{"name":"북한","iso":"PRK","source":"World Food Programme, OCHA ROAP / geoBoundaries","license":"CC BY 3.0 IGO"},"geometry":{"type":"MultiPolygon","coordinates":[[[[125.09505,37.67728],[125.09572,37.6814],[125.09351,37.68556],[125.08939,37.68218],[125.08727,37.67786],[125.08949,37.67393],[125.09505,37.67728]]],[[[125.23721,37.73741],[125.23502,37.74226],[125.23888,37.74656],[125.23605,37.74889],[125.228,37.74971],[125.22506,37.74769],[125.22411,37.7445],[125.23139,37.73545],[125.23721,37.73741]]],[[[125.33807,37.766],[125.27161,37.74052],[125.28156,37.72294],[125.25072,37.73582],[125.24888,37.73104],[125.25372,37.72867],[125.25278,37.7257],[125.24364,37.71806],[125.23471,37.70651],[125.22974,37.70384],[125.21378,37.69997],[125.20995,37.69614],[125.2116,37.69313],[125.21902,37.69003],[125.22123,37.6861],[125.25288,37.69498],[125.28085,37.71814],[125.29655,37.72314],[125.33807,37.766]]],[[[125.91167,37.77005],[125.91769,37.77725],[125.9169,37.77956],[125.88531,37.76718],[125.88692,37.76347],[125.88947,37.76227],[125.91167,37.77005]]],[[[125.26607,37.79471],[125.26467,37.79679],[125.25854,37.79414],[125.25308,37.79492],[125.24842,37.79316],[125.24832,37.78949],[125.25504,37.79236],[125.25904,37.79092],[125.26368,37.79154],[125.26607,37.79471]]],[[[125.77237,37.80989],[125.76479,37.80775],[125.75964,37.80924],[125.75941,37.8019],[125.75611,37.79807],[125.75835,37.7955],[125.76836,37.79255],[125.77451,37.79518],[125.77237,37.80989]]],[[[125.19707,37.80659],[125.1911,37.81035],[125.18868,37.81795],[125.13263,37.79224],[125.13325,37.79164],[125.13432,37.7906],[125.14444,37.79114],[125.14631,37.77255],[125.15501,37.78616],[125.19707,37.80659]]],[[[125.34069,37.7891],[125.36642,37.82327],[125.36151,37.8229],[125.35985,37.81468],[125.3345,37.79517],[125.32832,37.77946],[125.32909,37.77624],[125.34069,37.7891]]],[[[126.167,37.8289],[126.16597,37.83214],[126.16015,37.83113],[126.15535,37.8262],[126.15431,37.82164],[126.15816,37.81627],[126.167,37.8289]]],[[[125.7548,37.82951],[125.75432,37.83249],[125.74426,37.8343],[125.74519,37.82695],[125.7492,37.82595],[125.7548,37.82951]]],[[[125.04784,37.83453],[125.03365,37.83267],[125.02442,37.83303],[125.02004,37.83104],[125.02055,37.82805],[125.0303,37.8247],[125.0311,37.82171],[125.02631,37.81444],[125.0051,37.82139],[124.99133,37.79913],[125.02102,37.7971],[125.04188,37.81307],[125.0432,37.82038],[125.04977,37.82992],[125.04784,37.83453]]],[[[125.90983,37.82671],[125.91132,37.82805],[125.90997,37.83106],[125.90517,37.83437],[125.89279,37.83605],[125.89418,37.83392],[125.89806,37.82903],[125.90549,37.82657],[125.90983,37.82671]]],[[[126.17355,37.80284],[126.18362,37.8175],[126.19711,37.83071],[126.21548,37.84264],[126.17067,37.82652],[126.16673,37.81355],[126.17035,37.80223],[126.17355,37.80284]]],[[[125.37625,37.83411],[125.38187,37.83905],[125.37965,37.8423],[125.37395,37.84561],[125.36726,37.84366],[125.36515,37.84049],[125.36903,37.83423],[125.37218,37.83326],[125.37625,37.83411]]],[[[126.37521,37.8341],[126.38178,37.83944],[126.38834,37.84779],[126.40003,37.85502],[126.40166,37.85957],[126.39748,37.86357],[126.38538,37.86434],[126.3593,37.8627],[126.35686,37.85956],[126.35581,37.84767],[126.35829,37.83835],[126.36306,37.83349],[126.37521,37.8341]]],[[[124.96462,37.91341],[124.96117,37.92766],[124.95412,37.92226],[124.95747,37.91671],[124.9582,37.91052],[124.96462,37.91341]]],[[[124.87617,38.52587],[124.87547,38.53389],[124.81821,38.55684],[124.80206,38.53643],[124.79269,38.53357],[124.77927,38.53351],[124.77747,38.53055],[124.78199,38.52294],[124.77783,38.5191],[124.77345,38.51823],[124.77016,38.51438],[124.77357,38.5093],[124.78223,38.5053],[124.7974,38.50557],[124.80092,38.50736],[124.79805,38.50991],[124.78908,38.51278],[124.79501,38.51865],[124.804,38.51625],[124.81742,38.51677],[124.82198,38.51285],[124.83821,38.50758],[124.85491,38.49774],[124.88779,38.49594],[124.89192,38.49817],[124.89433,38.50203],[124.89387,38.50777],[124.88863,38.52204],[124.88662,38.52367],[124.87875,38.52331],[124.87617,38.52587]]],[[[125.07443,38.59252],[125.07748,38.5982],[125.07638,38.60096],[125.06905,38.59946],[125.06487,38.59541],[125.06541,38.5931],[125.06946,38.5919],[125.07443,38.59252]]],[[[125.00108,38.6522],[124.98975,38.66794],[124.98597,38.64211],[125.0,38.63939],[124.98213,38.62682],[124.97997,38.62112],[124.98421,38.61487],[125.01585,38.63413],[125.01454,38.64056],[125.02153,38.65283],[125.02011,38.65468],[125.01099,38.65138],[125.00108,38.6522]]],[[[127.52991,39.21644],[127.52864,39.22015],[127.51113,39.21754],[127.52991,39.21644]]],[[[127.63192,39.21955],[127.62045,39.23507],[127.61613,39.23179],[127.61744,39.22372],[127.61304,39.21884],[127.63192,39.21955]]],[[[127.46632,39.39312],[127.47184,39.37553],[127.47522,39.37793],[127.47375,39.38348],[127.48241,39.39052],[127.48017,39.39288],[127.47389,39.39126],[127.46632,39.39312]]],[[[127.4472,39.38872],[127.4476,39.39604],[127.44311,39.39481],[127.43897,39.38923],[127.4388,39.38625],[127.44195,39.38432],[127.4472,39.38872]]],[[[124.73563,39.41155],[124.73244,39.41433],[124.71703,39.40947],[124.71637,39.40628],[124.71896,39.40305],[124.7222,39.40255],[124.73563,39.41155]]],[[[124.61497,39.42412],[124.62101,39.43206],[124.61356,39.4445],[124.61366,39.45022],[124.58829,39.43287],[124.59622,39.43119],[124.59493,39.42502],[124.59988,39.42154],[124.61497,39.42412]]],[[[124.7847,39.44803],[124.78715,39.45234],[124.78193,39.45721],[124.77282,39.45915],[124.7681,39.45875],[124.76807,39.44251],[124.7847,39.44803]]],[[[124.63145,39.4562],[124.62282,39.46842],[124.6144,39.45891],[124.61847,39.45566],[124.62788,39.45441],[124.63145,39.4562]]],[[[124.62693,39.48394],[124.62846,39.48736],[124.62645,39.49058],[124.6232,39.49039],[124.6178,39.48496],[124.61831,39.4806],[124.62185,39.48033],[124.62693,39.48394]]],[[[124.811,39.50948],[124.8087,39.51271],[124.80132,39.51234],[124.79769,39.5085],[124.811,39.50948]]],[[[125.20818,39.51309],[125.20798,39.51698],[125.20391,39.51956],[125.20023,39.52557],[125.19582,39.52655],[125.19009,39.5216],[125.19119,39.51861],[125.20486,39.51039],[125.20818,39.51309]]],[[[124.70242,39.49705],[124.71124,39.52646],[124.71011,39.52922],[124.70541,39.53088],[124.69086,39.52647],[124.6851,39.51807],[124.67971,39.51424],[124.68192,39.50598],[124.67858,39.50007],[124.68611,39.49266],[124.6917,39.49145],[124.70242,39.49705]]],[[[125.14298,39.51546],[125.1564,39.53287],[125.13776,39.53132],[125.13556,39.52586],[125.12962,39.52435],[125.14298,39.51546]]],[[[125.1562,39.54866],[125.13626,39.54256],[125.14273,39.54131],[125.14736,39.53758],[125.15774,39.53926],[125.15575,39.54249],[125.1582,39.54566],[125.1562,39.54866]]],[[[124.73692,39.54172],[124.737,39.54583],[124.74239,39.54966],[124.74007,39.5522],[124.73506,39.55295],[124.72939,39.54958],[124.72953,39.54158],[124.73365,39.54061],[124.73692,39.54172]]],[[[124.68622,39.56313],[124.62708,39.56035],[124.59226,39.52778],[124.61254,39.53969],[124.63456,39.5319],[124.63316,39.53603],[124.63747,39.54606],[124.63985,39.5474],[124.65111,39.53286],[124.65968,39.53345],[124.67229,39.52851],[124.69291,39.54131],[124.69681,39.55104],[124.69848,39.55521],[124.69704,39.55728],[124.69114,39.55781],[124.68622,39.56313]]],[[[125.41476,39.55158],[125.42776,39.56211],[125.43088,39.56801],[125.42858,39.57034],[125.39095,39.54535],[125.39387,39.54393],[125.41476,39.55158]]],[[[124.89329,39.60671],[124.88774,39.60734],[124.87222,39.60022],[124.88598,39.59409],[124.88175,39.58957],[124.86962,39.58904],[124.86604,39.58703],[124.86599,39.58474],[124.87156,39.58261],[124.8755,39.57272],[124.82177,39.54595],[124.86041,39.5434],[124.85794,39.53817],[124.84781,39.53372],[124.8457,39.53147],[124.8474,39.52801],[124.8565,39.52538],[124.85761,39.52239],[124.85478,39.51396],[124.8464,39.50812],[124.83852,39.5128],[124.83614,39.51168],[124.81763,39.48697],[124.82205,39.48646],[124.83096,39.48909],[124.83846,39.49518],[124.8411,39.49446],[124.84139,39.49224],[124.84212,39.48667],[124.85193,39.48929],[124.85844,39.49104],[124.90852,39.52791],[124.90856,39.52997],[124.90508,39.53276],[124.90662,39.53548],[124.91047,39.53612],[124.91779,39.53305],[124.92398,39.53297],[124.93985,39.54305],[124.91634,39.5484],[124.91518,39.54978],[124.91761,39.55273],[124.92505,39.55491],[124.90939,39.56885],[124.91061,39.5709],[124.91776,39.57355],[124.90956,39.57709],[124.90937,39.58189],[124.91187,39.58849],[124.91426,39.58961],[124.92368,39.58742],[124.92963,39.58941],[124.92681,39.59585],[124.89329,39.60671]]],[[[124.9058,39.62243],[124.89529,39.61525],[124.90447,39.61559],[124.90648,39.61259],[124.90884,39.61279],[124.91038,39.61528],[124.9058,39.62243]]],[[[124.76154,39.62401],[124.75664,39.63024],[124.75181,39.62504],[124.75651,39.62339],[124.76154,39.62401]]],[[[124.83901,39.63862],[124.8295,39.63622],[124.82479,39.63742],[124.82204,39.63265],[124.82794,39.63235],[124.83231,39.62887],[124.83735,39.62949],[124.83901,39.63862]]],[[[124.52308,39.70578],[124.52789,39.71054],[124.54099,39.71498],[124.54432,39.71929],[124.54202,39.7232],[124.53936,39.72392],[124.52441,39.71492],[124.51869,39.70903],[124.51716,39.70561],[124.51831,39.70354],[124.52308,39.70578]]],[[[127.56553,39.73481],[127.56882,39.74065],[127.56637,39.7444],[127.56346,39.74542],[127.56023,39.74072],[127.56046,39.7343],[127.56553,39.73481]]],[[[124.35406,39.85374],[124.35856,39.8569],[124.36132,39.86351],[124.35902,39.86856],[124.35136,39.87251],[124.34574,39.87256],[124.33475,39.87334],[124.33802,39.85159],[124.35406,39.85374]]],[[[124.38272,39.8464],[124.3884,39.84978],[124.39177,39.85706],[124.3913,39.86507],[124.3872,39.86922],[124.37155,39.87393],[124.36411,39.87194],[124.36926,39.85909],[124.36821,39.84767],[124.36967,39.84628],[124.38272,39.8464]]],[[[124.34047,39.87901],[124.34275,39.88543],[124.34146,39.88609],[124.33501,39.89163],[124.32968,39.89237],[124.32522,39.89195],[124.32191,39.88854],[124.33275,39.87839],[124.33807,39.87743],[124.34047,39.87901]]],[[[124.25145,39.80634],[124.28198,39.83035],[124.2682,39.86475],[124.27449,39.8695],[124.27843,39.87541],[124.27999,39.8818],[124.2802,39.92135],[124.23397,39.90298],[124.2261,39.89],[124.22791,39.86872],[124.23231,39.86412],[124.24504,39.85723],[124.1891,39.82214],[124.18864,39.81559],[124.19398,39.8061],[124.19439,39.8019],[124.20215,39.805],[124.20621,39.80322],[124.20427,39.80144],[124.20781,39.80027],[124.22955,39.78432],[124.2346,39.7852],[124.22932,39.7905],[124.23055,39.79415],[124.25145,39.80634]]],[[[124.30177,39.91341],[124.30895,39.91792],[124.31107,39.92111],[124.30961,39.92249],[124.29619,39.91757],[124.29436,39.91438],[124.29611,39.91208],[124.30177,39.91341]]],[[[124.30161,39.9237],[124.30911,39.93004],[124.30736,39.93188],[124.29726,39.93197],[124.28821,39.92015],[124.29354,39.91987],[124.30161,39.9237]]],[[[124.3606,39.93966],[124.36487,39.94717],[124.36019,39.95224],[124.35721,39.95158],[124.35197,39.93745],[124.34805,39.93336],[124.3513,39.93219],[124.3606,39.93966]]],[[[130.28072,42.14465],[130.28573,42.148],[130.28807,42.15222],[130.2876,42.16673],[130.28468,42.17082],[130.27922,42.17163],[130.27322,42.17041],[130.2634,42.16024],[130.28072,42.14465]]],[[[130.29176,42.18392],[130.29465,42.18741],[130.29155,42.19267],[130.28795,42.19083],[130.28261,42.18221],[130.29176,42.18392]]],[[[129.95688,43.00812],[129.89452,43.00259],[129.87842,42.98241],[129.91434,42.97918],[129.9136,42.97217],[129.86513,42.97182],[129.85142,42.95983],[129.85175,42.94405],[129.86983,42.91871],[129.84435,42.91981],[129.83672,42.8639],[129.8127,42.84878],[129.81512,42.83405],[129.80319,42.81684],[129.80904,42.79034],[129.78491,42.77164],[129.78355,42.75532],[129.75972,42.72443],[129.77055,42.6948],[129.80327,42.67783],[129.77446,42.67212],[129.78369,42.64231],[129.76485,42.65498],[129.74706,42.64696],[129.76599,42.63292],[129.75288,42.6241],[129.75459,42.6156],[129.77981,42.61068],[129.75714,42.60043],[129.75136,42.58337],[129.73759,42.57717],[129.74606,42.54091],[129.73187,42.49761],[129.74374,42.46783],[129.70323,42.42714],[129.67378,42.43447],[129.6452,42.42552],[129.61912,42.46008],[129.60843,42.4616],[129.58411,42.44614],[129.60744,42.44273],[129.59627,42.4142],[129.57509,42.41211],[129.55747,42.38877],[129.57168,42.38234],[129.55025,42.37485],[129.54648,42.35987],[129.54492,42.36855],[129.53445,42.36277],[129.52318,42.3911],[129.50482,42.39413],[129.49396,42.4127],[129.46042,42.42237],[129.44595,42.44154],[129.4234,42.43348],[129.39507,42.45121],[129.38153,42.42311],[129.35638,42.42909],[129.36552,42.45373],[129.34492,42.45104],[129.33607,42.43892],[129.35539,42.42192],[129.34065,42.41715],[129.34934,42.40699],[129.33592,42.41075],[129.3313,42.43126],[129.31981,42.41785],[129.30734,42.42297],[129.31084,42.40523],[129.30127,42.40301],[129.31827,42.3837],[129.2944,42.38929],[129.29074,42.37863],[129.27086,42.38734],[129.25948,42.37204],[129.24133,42.37808],[129.22499,42.35166],[129.25591,42.32775],[129.23399,42.31414],[129.20721,42.32081],[129.19346,42.31477],[129.20978,42.30313],[129.23479,42.30764],[129.1998,42.28693],[129.22481,42.28146],[129.21603,42.26457],[129.17638,42.25766],[129.17546,42.2368],[129.20083,42.24226],[129.19704,42.22278],[129.20459,42.21268],[129.21948,42.21616],[129.2207,42.20432],[129.18994,42.20363],[129.18895,42.18914],[129.15826,42.18486],[129.16528,42.16427],[129.12624,42.16012],[129.12903,42.15045],[129.11278,42.13843],[129.08473,42.13904],[129.06777,42.15604],[129.07126,42.13763],[129.03969,42.13348],[129.0258,42.11817],[129.04053,42.11661],[129.03331,42.10482],[129.00291,42.089],[128.96289,42.09374],[128.94586,42.07774],[128.94568,42.06267],[128.95857,42.05442],[128.94755,42.02483],[128.91568,42.00957],[128.88518,42.02535],[128.8358,42.02375],[128.81072,42.0411],[128.77026,42.03107],[128.74527,42.05026],[128.72917,42.04861],[128.72963,42.04052],[128.68498,42.0122],[128.65003,42.01556],[128.65227,42.02662],[128.63682,42.0356],[128.60332,42.03139],[128.58911,42.02194],[128.58705,42.00592],[128.56386,41.99745],[128.54115,42.0045],[128.48894,41.99741],[128.44223,42.02936],[128.32811,42.03843],[128.23875,42.03082],[128.15147,42.00346],[128.11572,41.97715],[128.09702,41.99262],[128.07959,41.99297],[128.06638,41.96184],[128.08485,41.90466],[128.1028,41.88303],[128.09705,41.83674],[128.10617,41.79127],[128.1412,41.77762],[128.14026,41.74939],[128.16235,41.71211],[128.18398,41.70831],[128.20189,41.68486],[128.24272,41.67819],[128.25232,41.6646],[128.26314,41.66506],[128.26341,41.65526],[128.27249,41.65615],[128.2682,41.64562],[128.28001,41.6239],[128.29707,41.62754],[128.30003,41.61511],[128.2877,41.61032],[128.31117,41.60006],[128.30476,41.59491],[128.312,41.58623],[128.3112,41.57071],[128.28593,41.55068],[128.29536,41.53617],[128.23036,41.49081],[128.23884,41.47847],[128.22829,41.45447],[128.23994,41.44757],[128.21454,41.43727],[128.20184,41.40856],[128.16635,41.40215],[128.15036,41.38181],[128.11958,41.37745],[128.11278,41.36222],[128.08498,41.37165],[128.10332,41.3843],[128.09714,41.3963],[128.09656,41.38967],[128.07924,41.39054],[128.07555,41.37627],[128.06499,41.39251],[128.03232,41.39102],[128.03954,41.41515],[128.02971,41.41899],[128.01691,41.40887],[128.01332,41.42532],[127.99705,41.42733],[128.00934,41.44452],[127.99733,41.44256],[127.97915,41.41419],[127.97569,41.43047],[127.94169,41.43715],[127.9455,41.44749],[127.93257,41.45639],[127.9063,41.42628],[127.87283,41.44351],[127.86519,41.40088],[127.84402,41.42043],[127.82855,41.41616],[127.82758,41.40446],[127.79911,41.42178],[127.78717,41.40461],[127.77654,41.42421],[127.71606,41.41596],[127.68386,41.4211],[127.67107,41.41209],[127.65208,41.42609],[127.64749,41.4208],[127.65988,41.40721],[127.64931,41.40298],[127.61328,41.42976],[127.58849,41.4238],[127.55435,41.43215],[127.53866,41.45215],[127.54041,41.47414],[127.52048,41.46488],[127.49387,41.47526],[127.47515,41.46809],[127.4666,41.48061],[127.46188,41.46106],[127.41022,41.45551],[127.39285,41.47842],[127.35581,41.47674],[127.35668,41.46274],[127.34719,41.46035],[127.28934,41.48305],[127.25438,41.47725],[127.24799,41.48575],[127.27425,41.49191],[127.27859,41.50956],[127.26161,41.51101],[127.24044,41.4971],[127.22749,41.50655],[127.23425,41.51885],[127.20982,41.51681],[127.20648,41.53115],[127.17631,41.52379],[127.16043,41.53984],[127.14023,41.52409],[127.13687,41.53862],[127.09744,41.5437],[127.10021,41.55287],[127.11642,41.54848],[127.11299,41.55789],[127.12235,41.56667],[127.13978,41.56818],[127.14371,41.58452],[127.17502,41.58535],[127.17805,41.59306],[127.12422,41.59681],[127.11758,41.62271],[127.08602,41.62408],[127.10183,41.64212],[127.07169,41.64339],[127.06459,41.657],[127.0318,41.67012],[127.04387,41.69168],[127.06665,41.6872],[127.07672,41.7008],[127.04922,41.70207],[127.04671,41.74163],[127.00411,41.74314],[127.00395,41.75969],[126.98037,41.76362],[126.9724,41.77455],[126.92985,41.77281],[126.93056,41.78485],[126.94688,41.79058],[126.94084,41.80753],[126.8776,41.78601],[126.85298,41.75891],[126.84078,41.72198],[126.8258,41.7208],[126.81479,41.74404],[126.80364,41.74613],[126.79221,41.69155],[126.77608,41.69493],[126.76891,41.71656],[126.72332,41.74366],[126.69157,41.74989],[126.68213,41.73089],[126.72531,41.71666],[126.72523,41.70684],[126.68525,41.67969],[126.68113,41.66793],[126.64931,41.65521],[126.60954,41.67029],[126.60855,41.64147],[126.5903,41.61725],[126.5588,41.61279],[126.58679,41.56228],[126.58147,41.54849],[126.55393,41.53042],[126.5434,41.49523],[126.55162,41.48676],[126.52975,41.47334],[126.50174,41.43233],[126.50393,41.39259],[126.5322,41.37195],[126.5301,41.35423],[126.4754,41.3459],[126.50647,41.36349],[126.49159,41.37202],[126.43217,41.35159],[126.43279,41.33023],[126.40592,41.32911],[126.39559,41.30378],[126.36076,41.27811],[126.35364,41.2433],[126.31898,41.22979],[126.30534,41.19006],[126.28399,41.1861],[126.29146,41.16975],[126.2832,41.16032],[126.23596,41.14456],[126.22415,41.12763],[126.19318,41.11681],[126.16808,41.0931],[126.1181,41.08826],[126.10899,41.07113],[126.13068,41.05521],[126.11871,41.03171],[126.09473,41.0321],[126.10419,41.00266],[126.06257,40.99643],[126.0771,40.97382],[126.04892,40.96182],[126.03458,40.9254],[126.00055,40.93333],[125.97242,40.91178],[125.97924,40.9065],[125.99854,40.91699],[126.02221,40.8994],[125.99024,40.89291],[125.97085,40.90268],[125.96088,40.88283],[125.93216,40.87648],[125.90805,40.88743],[125.90874,40.91067],[125.89683,40.89674],[125.87026,40.90491],[125.8563,40.88481],[125.80956,40.86205],[125.7971,40.86586],[125.79029,40.88496],[125.77006,40.89164],[125.75073,40.86824],[125.70766,40.86745],[125.63021,40.80252],[125.68088,40.78398],[125.68007,40.76279],[125.60088,40.75612],[125.58299,40.77411],[125.56549,40.77361],[125.54763,40.75916],[125.53508,40.7205],[125.47765,40.71982],[125.45571,40.70081],[125.45124,40.66936],[125.41234,40.66993],[125.40765,40.66208],[125.4187,40.63515],[125.41165,40.626],[125.39303,40.62779],[125.36634,40.64922],[125.32528,40.63707],[125.28273,40.6554],[125.26826,40.64633],[125.26469,40.62261],[125.25305,40.61281],[125.18425,40.60345],[125.10973,40.56354],[125.02279,40.53347],[125.00366,40.52115],[125.00145,40.50789],[125.03918,40.48474],[125.04341,40.4688],[125.03529,40.45867],[124.98568,40.46913],[124.91993,40.45455],[124.9053,40.46259],[124.90602,40.48011],[124.89704,40.48067],[124.85622,40.42693],[124.74286,40.37471],[124.71931,40.31963],[124.6138,40.28568],[124.5697,40.25085],[124.52132,40.22914],[124.48283,40.17458],[124.45634,40.17386],[124.40372,40.13403],[124.3348,40.05593],[124.3652,40.02708],[124.35811,40.00092],[124.35829,40.0],[124.36436,40.0],[124.37175,40.0],[124.36504,39.97986],[124.36367,39.9673],[124.36822,39.95286],[124.40086,39.95165],[124.33099,39.92345],[124.31588,39.90346],[124.31611,39.89843],[124.39161,39.86941],[124.40908,39.82757],[124.41946,39.82365],[124.41615,39.82071],[124.40974,39.80796],[124.41024,39.80141],[124.41328,39.79782],[124.41839,39.7962],[124.45848,39.83274],[124.53596,39.80583],[124.56714,39.82724],[124.57264,39.82064],[124.57218,39.80957],[124.55714,39.79601],[124.549,39.76956],[124.57858,39.76765],[124.58354,39.7628],[124.58686,39.74904],[124.58645,39.74219],[124.58337,39.73558],[124.55549,39.7146],[124.59366,39.71375],[124.61804,39.68604],[124.62186,39.6844],[124.63234,39.6916],[124.63885,39.69107],[124.64315,39.6837],[124.64391,39.67638],[124.64677,39.67108],[124.61036,39.61818],[124.631,39.59828],[124.60486,39.59079],[124.60334,39.58852],[124.60712,39.58504],[124.63778,39.58082],[124.64378,39.58556],[124.63942,39.58973],[124.63929,39.59911],[124.67262,39.61178],[124.67637,39.62294],[124.67815,39.62361],[124.68129,39.61694],[124.68647,39.62558],[124.69182,39.62711],[124.70054,39.63456],[124.74492,39.63588],[124.72661,39.65302],[124.76727,39.67564],[124.72771,39.68023],[124.73947,39.6913],[124.74659,39.69258],[124.7502,39.69552],[124.72337,39.69527],[124.72731,39.70585],[124.74033,39.70524],[124.74661,39.70928],[124.75062,39.71724],[124.74992,39.72731],[124.75181,39.73301],[124.74551,39.74429],[124.74274,39.75416],[124.73867,39.75832],[124.72923,39.76072],[124.76266,39.77337],[124.76263,39.77334],[124.75695,39.76955],[124.75451,39.76592],[124.75774,39.76405],[124.75334,39.75129],[124.75677,39.74508],[124.77012,39.73073],[124.77543,39.72976],[124.78822,39.73257],[124.79086,39.7314],[124.79845,39.72581],[124.8019,39.72051],[124.8029,39.71158],[124.85213,39.71599],[124.85792,39.69511],[124.87539,39.6958],[124.88379,39.70095],[124.88914,39.70203],[124.91116,39.66582],[124.90688,39.65925],[124.90269,39.65702],[124.90203,39.65382],[124.91214,39.64883],[124.92105,39.64442],[124.93156,39.65138],[124.9365,39.64765],[124.93891,39.63618],[124.9458,39.6402],[124.94736,39.64384],[124.9474,39.67244],[124.95535,39.67073],[124.9618,39.65486],[124.97091,39.65222],[124.97231,39.6355],[124.96893,39.62937],[125.01141,39.63793],[125.01107,39.63611],[125.0191,39.62479],[125.04385,39.62123],[125.05087,39.6177],[125.0591,39.61598],[125.06111,39.61344],[125.05985,39.61002],[125.06157,39.60771],[125.10369,39.61328],[125.1089,39.59673],[125.10937,39.5958],[125.12413,39.5663],[125.18252,39.57343],[125.17944,39.59223],[125.21973,39.60763],[125.22308,39.6117],[125.22552,39.62607],[125.22887,39.62991],[125.2636,39.63485],[125.23722,39.62108],[125.21301,39.5757],[125.24923,39.55935],[125.25421,39.54645],[125.25831,39.54479],[125.26954,39.54507],[125.2704,39.54414],[125.26425,39.53485],[125.27358,39.51892],[125.31306,39.52651],[125.33664,39.54695],[125.36063,39.5493],[125.37076,39.55233],[125.37587,39.55545],[125.39355,39.57505],[125.40034,39.57471],[125.40575,39.57828],[125.42596,39.58205],[125.44363,39.55909],[125.4065,39.54143],[125.3997,39.53079],[125.39787,39.51801],[125.39874,39.50655],[125.40483,39.50278],[125.34559,39.46567],[125.34116,39.46047],[125.33758,39.45201],[125.34352,39.44074],[125.34573,39.43513],[125.35014,39.4346],[125.35662,39.43426],[125.39066,39.44925],[125.35068,39.42178],[125.37269,39.37798],[125.39003,39.37668],[125.39658,39.37481],[125.40235,39.36235],[125.40518,39.3549],[125.40226,39.33652],[125.41348,39.33322],[125.4194,39.30981],[125.4581,39.32061],[125.40552,39.29383],[125.40021,39.28271],[125.42599,39.27837],[125.42709,39.27583],[125.42338,39.26903],[125.43237,39.25377],[125.40411,39.2641],[125.3954,39.25784],[125.39164,39.24943],[125.3844,39.24315],[125.40165,39.2179],[125.37416,39.2344],[125.30251,39.17218],[125.28196,39.11689],[125.30111,39.10788],[125.26102,39.07617],[125.21066,39.00241],[125.21174,38.99873],[125.21818,38.99454],[125.18771,38.98617],[125.18599,38.983],[125.18877,38.97944],[125.18784,38.97466],[125.19317,38.97522],[125.20137,38.9751],[125.20493,38.97269],[125.20432,38.97206],[125.17864,38.94087],[125.17313,38.92601],[125.16706,38.90691],[125.15097,38.87984],[125.14485,38.87658],[125.1384,38.87622],[125.12762,38.87867],[125.12637,38.87503],[125.12502,38.86772],[125.13363,38.8724],[125.15601,38.85352],[125.14346,38.84294],[125.14302,38.837],[125.14826,38.836],[125.14668,38.83122],[125.1385,38.8192],[125.14623,38.78817],[125.15081,38.78398],[125.1564,38.7855],[125.16345,38.78676],[125.17794,38.76959],[125.19438,38.784],[125.19425,38.77873],[125.19074,38.76688],[125.21052,38.751],[125.21049,38.7384],[125.22305,38.73797],[125.21831,38.74698],[125.21811,38.75065],[125.22775,38.76194],[125.23067,38.77381],[125.22163,38.798],[125.20934,38.80918],[125.21262,38.81188],[125.21639,38.81044],[125.21774,38.80562],[125.22263,38.80279],[125.2328,38.81133],[125.23324,38.8056],[125.22966,38.79145],[125.23101,38.78685],[125.23711,38.78538],[125.24123,38.77479],[125.2672,38.77276],[125.27137,38.76445],[125.26118,38.76576],[125.25178,38.76408],[125.22498,38.72191],[125.28224,38.68755],[125.28748,38.68655],[125.29106,38.6897],[125.29807,38.68842],[125.30042,38.69198],[125.29917,38.69827],[125.30162,38.70235],[125.3045,38.70116],[125.3166,38.70531],[125.31841,38.70757],[125.30224,38.72616],[125.31384,38.72253],[125.32478,38.7164],[125.3269,38.71957],[125.33,38.72441],[125.33357,38.71763],[125.33746,38.70977],[125.34917,38.71118],[125.36181,38.7144],[125.35684,38.74632],[125.35867,38.74903],[125.36447,38.74756],[125.37417,38.74923],[125.36379,38.73315],[125.36335,38.72743],[125.36439,38.7226],[125.36948,38.71633],[125.37467,38.71395],[125.38897,38.71325],[125.39691,38.71517],[125.40567,38.71901],[125.43359,38.73126],[125.43692,38.73555],[125.43644,38.73922],[125.4316,38.74388],[125.41767,38.74757],[125.42719,38.75312],[125.45984,38.73972],[125.46867,38.73178],[125.45947,38.72645],[125.46056,38.72391],[125.46458,38.72155],[125.52905,38.71763],[125.52985,38.7151],[125.5265,38.71035],[125.56205,38.6971],[125.51946,38.66903],[125.47619,38.69798],[125.4324,38.70929],[125.43259,38.70585],[125.42809,38.70157],[125.43467,38.69665],[125.43478,38.69001],[125.44138,38.68577],[125.43189,38.6809],[125.36253,38.68806],[125.34659,38.66885],[125.3414,38.67146],[125.33324,38.67205],[125.3301,38.67485],[125.30679,38.64341],[125.31147,38.62157],[125.30788,38.62184],[125.3039,38.62215],[125.29929,38.62452],[125.29549,38.64634],[125.2648,38.65646],[125.26418,38.66654],[125.21082,38.64587],[125.1695,38.66346],[125.18154,38.6303],[125.17813,38.62233],[125.17278,38.61852],[125.16577,38.61817],[125.12896,38.66523],[125.1232,38.66852],[125.11935,38.66629],[125.11027,38.64008],[125.11423,38.63476],[125.1227,38.63509],[125.13284,38.59508],[125.13012,38.59123],[125.12695,38.59288],[125.12427,38.59063],[125.1288,38.58506],[125.13548,38.58405],[125.13921,38.58124],[125.14144,38.57685],[125.14065,38.56817],[125.08749,38.57721],[125.07287,38.53734],[125.03623,38.55436],[125.04546,38.5627],[125.05158,38.56262],[125.05254,38.56627],[125.04221,38.57352],[125.03894,38.58387],[125.0,38.58225],[125.0,38.52785],[125.00756,38.52362],[125.01337,38.50957],[125.0152,38.50015],[125.01328,38.49261],[125.00095,38.47492],[125.0,38.47423],[124.96956,38.452],[124.97006,38.44741],[124.97555,38.44527],[124.97895,38.44133],[124.97539,38.43794],[124.97504,38.43543],[124.97145,38.4309],[124.96044,38.46037],[124.93723,38.43709],[124.92993,38.42207],[124.92368,38.41552],[124.92044,38.39998],[124.85667,38.33966],[124.87663,38.30664],[124.86651,38.26599],[124.86974,38.25358],[124.89211,38.23954],[124.88663,38.22793],[124.89379,38.22302],[124.89845,38.22319],[124.89513,38.2175],[124.9369,38.21626],[124.95016,38.2257],[124.96155,38.22829],[124.99676,38.21886],[124.95322,38.21901],[124.95055,38.2163],[124.95303,38.21053],[124.95036,38.20736],[124.93465,38.20552],[124.93344,38.2037],[124.93425,38.20071],[124.94058,38.19833],[124.94228,38.19602],[124.93876,38.19446],[124.92715,38.19394],[124.9154,38.18722],[124.91273,38.21246],[124.87847,38.21176],[124.86622,38.23759],[124.84593,38.2179],[124.81916,38.19191],[124.80415,38.18111],[124.82766,38.18149],[124.81628,38.17843],[124.79895,38.1672],[124.77688,38.18099],[124.76792,38.16758],[124.75933,38.15829],[124.73669,38.14184],[124.72179,38.13514],[124.66649,38.13991],[124.65434,38.12516],[124.66666,38.11723],[124.67881,38.11526],[124.69173,38.10892],[124.79028,38.09398],[124.85545,38.10621],[124.86918,38.11245],[124.88095,38.12032],[124.87982,38.12193],[124.87405,38.12293],[124.8803,38.13132],[124.8856,38.13538],[124.88821,38.13488],[124.88655,38.12482],[124.99048,38.07827],[124.99731,38.07267],[125.0,38.06946],[125.00663,38.06154],[125.01012,38.06195],[125.01204,38.0704],[125.0176,38.07284],[125.0444,38.06627],[125.13162,38.09178],[125.17719,38.09451],[125.2217,38.07823],[125.23198,38.08356],[125.2442,38.08566],[125.25452,38.08137],[125.26001,38.08059],[125.27686,38.05992],[125.2588,38.06709],[125.2556,38.06669],[125.23608,38.0505],[125.23273,38.04414],[125.23609,38.0395],[125.23418,38.03265],[125.24426,38.01897],[125.23754,38.01656],[125.21165,38.02362],[125.21355,38.04169],[125.18784,38.05585],[125.11167,38.04442],[125.10271,38.02026],[125.11697,37.98613],[125.13905,37.98992],[125.12993,37.97127],[125.17307,37.98458],[125.17251,37.97336],[125.15001,37.95194],[125.08304,37.95822],[125.07767,37.97641],[125.07569,37.97827],[125.06041,37.98079],[125.02623,37.95333],[125.02286,37.95796],[125.01938,37.95801],[125.0163,37.96218],[124.99538,37.95789],[124.97649,37.92745],[124.98015,37.92259],[124.98529,37.91999],[125.00816,37.93433],[125.01241,37.93015],[125.00554,37.92016],[125.01215,37.90563],[125.02455,37.90408],[125.03192,37.89733],[125.03651,37.89611],[125.06927,37.90022],[125.08346,37.87594],[125.10799,37.8742],[125.13171,37.8633],[125.13578,37.86415],[125.13882,37.87098],[125.15023,37.87654],[125.15252,37.87558],[125.14748,37.87016],[125.15403,37.86639],[125.16122,37.86468],[125.174,37.86723],[125.18233,37.86789],[125.19339,37.86876],[125.20521,37.87934],[125.21332,37.88013],[125.22687,37.89046],[125.22215,37.89832],[125.20986,37.90402],[125.2346,37.89881],[125.23528,37.90293],[125.22761,37.90855],[125.24284,37.92756],[125.23043,37.94059],[125.23141,37.94516],[125.23888,37.9432],[125.26083,37.93047],[125.24816,37.92082],[125.24337,37.91448],[125.24115,37.9065],[125.24306,37.90211],[125.25193,37.89853],[125.27122,37.89524],[125.27847,37.89603],[125.28944,37.90226],[125.30451,37.8718],[125.26541,37.83735],[125.23272,37.82367],[125.22393,37.80685],[125.24525,37.81636],[125.28256,37.79627],[125.28596,37.80492],[125.25906,37.82576],[125.26364,37.82408],[125.27614,37.82755],[125.28046,37.82679],[125.28098,37.82471],[125.27483,37.82138],[125.27909,37.81879],[125.29523,37.82837],[125.31297,37.83335],[125.3017,37.79985],[125.3312,37.82365],[125.3461,37.81904],[125.35668,37.84774],[125.37707,37.8538],[125.3806,37.85626],[125.38068,37.85947],[125.34855,37.85705],[125.3466,37.87083],[125.35698,37.86997],[125.36522,37.87555],[125.37097,37.87431],[125.37317,37.87014],[125.37015,37.86538],[125.37211,37.86306],[125.38019,37.86246],[125.39066,37.8648],[125.39233,37.86294],[125.38924,37.85543],[125.39528,37.85417],[125.42236,37.86195],[125.42522,37.86098],[125.42686,37.85752],[125.42166,37.84707],[125.44469,37.84414],[125.44714,37.85945],[125.43981,37.866],[125.43492,37.86677],[125.42938,37.86526],[125.42689,37.86898],[125.43343,37.87573],[125.43148,37.87829],[125.39017,37.87902],[125.37548,37.89188],[125.37109,37.90043],[125.37375,37.90268],[125.4342,37.89291],[125.424,37.9112],[125.43165,37.91588],[125.43362,37.92455],[125.44666,37.92524],[125.45424,37.92762],[125.45284,37.88777],[125.45796,37.88493],[125.4635,37.88666],[125.46741,37.89209],[125.46529,37.89878],[125.46796,37.90148],[125.48295,37.88952],[125.49133,37.88937],[125.506,37.89246],[125.50932,37.89179],[125.50634,37.87451],[125.45853,37.8636],[125.49187,37.8575],[125.48622,37.85164],[125.47373,37.84934],[125.47104,37.84664],[125.49767,37.81751],[125.51536,37.84011],[125.52073,37.83588],[125.52509,37.83695],[125.53053,37.84532],[125.53286,37.84597],[125.49191,37.79744],[125.48281,37.82305],[125.47506,37.82457],[125.46926,37.82375],[125.46503,37.82773],[125.45341,37.82518],[125.44744,37.81819],[125.44572,37.81845],[125.4449,37.82609],[125.44434,37.83131],[125.44086,37.83091],[125.40485,37.80266],[125.40198,37.81349],[125.39337,37.79439],[125.40153,37.78622],[125.37865,37.78387],[125.37524,37.79059],[125.37372,37.79358],[125.36314,37.78643],[125.35479,37.77648],[125.35852,37.77573],[125.36492,37.77746],[125.3848,37.77643],[125.38592,37.7748],[125.37557,37.76559],[125.37666,37.76305],[125.38162,37.76525],[125.39053,37.76395],[125.39836,37.76542],[125.40543,37.77079],[125.41124,37.77184],[125.41257,37.77824],[125.41606,37.77932],[125.41736,37.78457],[125.43649,37.78744],[125.44246,37.77381],[125.42671,37.75735],[125.41373,37.7679],[125.37244,37.74593],[125.36051,37.76355],[125.359,37.76272],[125.35085,37.75822],[125.35278,37.75497],[125.35876,37.75189],[125.31357,37.71186],[125.31407,37.70887],[125.33753,37.69082],[125.3394,37.68506],[125.33853,37.67407],[125.3414,37.67333],[125.3469,37.67566],[125.35655,37.67973],[125.34753,37.68698],[125.36929,37.72466],[125.41142,37.72531],[125.40959,37.73081],[125.40928,37.73176],[125.41049,37.7338],[125.43333,37.72492],[125.45119,37.72414],[125.46697,37.72134],[125.48183,37.73666],[125.47946,37.74495],[125.48019,37.75044],[125.49412,37.76325],[125.5031,37.79495],[125.51078,37.80122],[125.51721,37.80386],[125.51774,37.80224],[125.51164,37.79089],[125.51688,37.77223],[125.52201,37.76984],[125.52733,37.76402],[125.54778,37.76249],[125.54834,37.77211],[125.54397,37.77058],[125.53821,37.77092],[125.53709,37.77231],[125.54771,37.78014],[125.55328,37.7897],[125.55683,37.79578],[125.55884,37.79552],[125.56047,37.79228],[125.56526,37.77821],[125.58665,37.77918],[125.5668,37.76167],[125.61437,37.76031],[125.62258,37.79339],[125.60348,37.79192],[125.59998,37.80047],[125.60011,37.80505],[125.64174,37.82556],[125.64072,37.82994],[125.63506,37.82409],[125.6298,37.82236],[125.616,37.84394],[125.61768,37.85147],[125.63036,37.85077],[125.63766,37.85292],[125.63267,37.86012],[125.63609,37.86785],[125.63046,37.87323],[125.63116,37.87711],[125.64201,37.89203],[125.63111,37.90439],[125.61843,37.90578],[125.61567,37.90996],[125.61687,37.91177],[125.6223,37.90937],[125.62611,37.91136],[125.6257,37.9126],[125.62187,37.92405],[125.62521,37.92926],[125.66192,37.8905],[125.67547,37.88931],[125.69056,37.89131],[125.72822,37.9121],[125.73492,37.92297],[125.73573,37.93029],[125.73332,37.93652],[125.72743,37.9332],[125.72482,37.92386],[125.72041,37.9212],[125.69424,37.91691],[125.69196,37.91787],[125.6925,37.92588],[125.68136,37.93045],[125.68262,37.9341],[125.69568,37.93521],[125.69864,37.93745],[125.70467,37.95475],[125.70932,37.95534],[125.71384,37.95204],[125.71618,37.95268],[125.71597,37.95521],[125.71096,37.9615],[125.71054,37.96678],[125.67334,37.95193],[125.68484,37.98723],[125.6433,37.96306],[125.60001,37.98658],[125.56061,38.02468],[125.58596,38.03979],[125.61358,38.02391],[125.62237,38.03703],[125.63597,38.02715],[125.64324,38.01853],[125.64726,38.01753],[125.675,38.02501],[125.67951,38.02102],[125.68609,38.00897],[125.68897,38.00846],[125.69413,38.01399],[125.6953,38.00719],[125.69056,37.99422],[125.69249,37.9912],[125.69849,37.98856],[125.70658,37.98817],[125.71568,37.99212],[125.71709,38.00973],[125.7192,38.01222],[125.74306,38.01609],[125.77742,37.99499],[125.80563,37.98983],[125.80946,37.98333],[125.79636,37.97191],[125.79229,37.96237],[125.79242,37.95732],[125.79704,37.94806],[125.80437,37.94195],[125.81097,37.94043],[125.81765,37.94121],[125.8268,37.94676],[125.82908,37.94579],[125.83044,37.94324],[125.82328,37.93651],[125.86111,37.90821],[125.86241,37.90406],[125.8596,37.89793],[125.86005,37.89402],[125.86483,37.88979],[125.87293,37.89008],[125.87803,37.88676],[125.90184,37.83834],[125.92287,37.83674],[125.93026,37.8414],[125.97722,37.82913],[125.97904,37.83184],[125.97771,37.83508],[125.96418,37.84501],[125.96405,37.84959],[125.97079,37.86045],[125.96973,37.86322],[125.95295,37.87964],[125.9762,37.8899],[126.03074,37.84583],[126.04647,37.86588],[126.04668,37.87184],[126.05499,37.87165],[126.05708,37.8716],[126.06634,37.80674],[126.09555,37.7847],[126.1003,37.78521],[126.10428,37.78819],[126.09866,37.75023],[126.10281,37.74958],[126.11276,37.74804],[126.13216,37.73978],[126.15656,37.73922],[126.16333,37.74094],[126.16662,37.76662],[126.17088,37.77485],[126.17025,37.77924],[126.15031,37.82692],[126.15292,37.83374],[126.15617,37.83617],[126.21195,37.84892],[126.20213,37.87185],[126.2674,37.84047],[126.27151,37.84976],[126.27538,37.84508],[126.27824,37.84409],[126.3408,37.87739],[126.35182,37.87825],[126.37575,37.88384],[126.39341,37.88454],[126.40865,37.91045],[126.41304,37.90808],[126.41462,37.90722],[126.41775,37.90019],[126.41386,37.89685],[126.40453,37.88081],[126.4044,37.8776],[126.41086,37.87263],[126.42302,37.85168],[126.46229,37.83667],[126.46855,37.82314],[126.47185,37.81602],[126.49958,37.8162],[126.50703,37.81463],[126.58537,37.76828],[126.6203,37.78842],[126.6526,37.7873],[126.65411,37.78886],[126.64972,37.80091],[126.66035,37.81964],[126.66583,37.83302],[126.67162,37.82621],[126.67712,37.8218],[126.69527,37.91129],[126.68578,37.95236],[126.784,37.96796],[126.85652,38.03466],[126.88202,38.09124],[126.97116,38.14318],[126.96132,38.16204],[126.97558,38.19968],[127.01659,38.23742],[127.13235,38.30494],[127.16795,38.30177],[127.23874,38.32727],[127.29181,38.31295],[127.32559,38.31392],[127.39053,38.33195],[127.49892,38.29782],[127.58607,38.33311],[127.61362,38.32114],[127.68185,38.31897],[127.70255,38.32993],[127.76379,38.3275],[127.79066,38.33913],[127.82943,38.30079],[127.87099,38.31004],[127.89333,38.3287],[127.9599,38.31336],[128.06801,38.30693],[128.07831,38.30883],[128.08966,38.31366],[128.10983,38.32916],[128.14517,38.33145],[128.28918,38.43443],[128.31207,38.47272],[128.32069,38.5109],[128.31511,38.58635],[128.36378,38.6194],[128.35603,38.67888],[128.28311,38.72174],[128.28113,38.73191],[128.27768,38.73732],[128.2802,38.74433],[128.26562,38.74973],[128.26247,38.74619],[128.26469,38.73556],[128.2612,38.73134],[128.25581,38.72949],[128.22078,38.73044],[128.1984,38.71437],[128.20434,38.73889],[128.14574,38.78339],[128.13988,38.79932],[128.1395,38.80037],[128.12173,38.81597],[128.05608,38.85245],[128.0535,38.84888],[128.05391,38.84588],[128.04692,38.84202],[128.00426,38.85329],[127.98885,38.86465],[127.96949,38.88349],[127.95557,38.90029],[127.95195,38.90822],[127.95365,38.91686],[127.94843,38.91775],[127.93861,38.9156],[127.93083,38.91772],[127.91338,38.92983],[127.89877,38.94528],[127.89905,38.94985],[127.90475,38.95674],[127.90371,38.95907],[127.8787,38.95289],[127.8746,38.97734],[127.86376,38.97293],[127.85707,38.97387],[127.85227,38.97702],[127.82706,39.0169],[127.81734,39.0262],[127.80015,39.03347],[127.80475,39.03674],[127.79851,39.04545],[127.78265,39.07535],[127.74485,39.12735],[127.71749,39.10679],[127.71165,39.10746],[127.70337,39.11165],[127.69724,39.11232],[127.68674,39.10376],[127.6798,39.10057],[127.66749,39.10101],[127.62134,39.13195],[127.60361,39.1564],[127.58458,39.14217],[127.55052,39.14838],[127.52935,39.13788],[127.53202,39.12244],[127.53126,39.11926],[127.52788,39.11663],[127.52092,39.13955],[127.48319,39.16992],[127.4777,39.18727],[127.47543,39.19447],[127.46772,39.15601],[127.4443,39.15244],[127.43131,39.17327],[127.37447,39.2047],[127.36463,39.25725],[127.38203,39.29057],[127.40309,39.29331],[127.40204,39.29564],[127.39046,39.29945],[127.39002,39.30222],[127.39962,39.31083],[127.40041,39.31447],[127.3874,39.33552],[127.39473,39.33481],[127.40079,39.33782],[127.41201,39.30562],[127.42134,39.29843],[127.4251,39.29716],[127.43399,39.29801],[127.44662,39.30263],[127.45464,39.30923],[127.45449,39.31198],[127.44891,39.31217],[127.43973,39.30606],[127.43388,39.30672],[127.42268,39.31213],[127.41968,39.31658],[127.42427,39.32513],[127.44784,39.3303],[127.46319,39.32543],[127.46623,39.35396],[127.45909,39.35786],[127.45581,39.36279],[127.4464,39.36882],[127.42552,39.34822],[127.42004,39.35024],[127.4142,39.35684],[127.40706,39.35593],[127.40224,39.34831],[127.39953,39.34725],[127.39063,39.35167],[127.37966,39.35066],[127.36902,39.36658],[127.36948,39.3673],[127.37354,39.37376],[127.37674,39.37297],[127.38282,39.36544],[127.38773,39.36344],[127.3934,39.36486],[127.39479,39.36871],[127.38497,39.37796],[127.39843,39.37592],[127.40353,39.37758],[127.40608,39.38116],[127.40484,39.38555],[127.40882,39.38816],[127.41586,39.38747],[127.42494,39.38076],[127.42823,39.38157],[127.429,39.38441],[127.43081,39.3911],[127.43435,39.39648],[127.43195,39.40114],[127.42625,39.40476],[127.38748,39.40261],[127.37779,39.38713],[127.36761,39.38426],[127.36111,39.38401],[127.37885,39.40656],[127.33205,39.40328],[127.40748,39.41226],[127.41013,39.41766],[127.41319,39.41963],[127.4614,39.40542],[127.45247,39.41488],[127.50185,39.42719],[127.50986,39.41203],[127.5124,39.39408],[127.52689,39.39474],[127.53091,39.39277],[127.54102,39.35738],[127.53845,39.35358],[127.526,39.34713],[127.52287,39.3438],[127.52361,39.34125],[127.53165,39.33732],[127.51311,39.30611],[127.55649,39.29158],[127.56605,39.30595],[127.56647,39.30658],[127.51873,39.44425],[127.51569,39.47962],[127.51708,39.48873],[127.5145,39.506],[127.54997,39.55883],[127.55983,39.56582],[127.56972,39.56822],[127.56444,39.57413],[127.56679,39.57909],[127.57442,39.5834],[127.57544,39.58566],[127.56973,39.58929],[127.55747,39.60276],[127.55743,39.60734],[127.5639,39.61697],[127.56344,39.61928],[127.53358,39.63689],[127.51228,39.63118],[127.50418,39.63326],[127.48803,39.66281],[127.48806,39.6674],[127.48817,39.68662],[127.49035,39.69914],[127.49944,39.7159],[127.5029,39.72229],[127.51411,39.73748],[127.52927,39.74864],[127.53388,39.74935],[127.5475,39.75146],[127.5414,39.77456],[127.57458,39.79494],[127.56429,39.83855],[127.58689,39.79772],[127.58923,39.79718],[127.59095,39.79906],[127.60728,39.81694],[127.62009,39.8181],[127.63016,39.82279],[127.63584,39.82327],[127.65347,39.79496],[127.70766,39.84411],[127.77612,39.8474],[127.79027,39.85559],[127.77135,39.89175],[127.80373,39.87227],[127.80888,39.87392],[127.81202,39.88159],[127.81724,39.87957],[127.82018,39.87397],[127.82436,39.87451],[127.82896,39.87686],[127.83788,39.87722],[127.86035,39.89014],[127.8801,39.88278],[127.88165,39.88387],[127.87276,39.88923],[127.87073,39.8948],[127.87111,39.90096],[127.88291,39.92411],[127.86971,39.93649],[127.87769,39.95543],[127.90217,39.98131],[127.91699,39.97093],[127.9405,39.98562],[127.95307,40.0],[127.95879,40.0053],[128.06119,40.01449],[128.16083,40.00742],[128.17303,40.0],[128.16344,39.98358],[128.16557,39.97983],[128.17381,39.9786],[128.18596,39.98247],[128.21066,39.98265],[128.24478,40.00601],[128.31673,39.99611],[128.33457,40.05755],[128.36772,40.09512],[128.37505,40.09705],[128.39456,40.09885],[128.41598,40.09849],[128.41344,40.10365],[128.41408,40.10775],[128.42541,40.10078],[128.44339,40.10173],[128.46912,40.13138],[128.52003,40.13389],[128.5564,40.1685],[128.59651,40.18389],[128.63269,40.18114],[128.64969,40.20845],[128.65967,40.18938],[128.66666,40.21125],[128.66304,40.21442],[128.65959,40.22628],[128.66824,40.23294],[128.66791,40.23593],[128.61853,40.2765],[128.62541,40.29723],[128.62944,40.30574],[128.63423,40.30939],[128.65034,40.31567],[128.65663,40.31581],[128.65604,40.30897],[128.6586,40.30746],[128.66426,40.30717],[128.66988,40.30986],[128.68137,40.32164],[128.69696,40.3323],[128.75235,40.33929],[128.75478,40.34306],[128.76808,40.35131],[128.77891,40.34525],[128.80913,40.35168],[128.83218,40.36514],[128.84834,40.37162],[128.85709,40.37231],[128.90412,40.39869],[128.97885,40.46186],[129.04277,40.48154],[129.04999,40.48161],[129.05283,40.47985],[129.06026,40.46958],[129.07938,40.47518],[129.16803,40.56774],[129.17058,40.57242],[129.16597,40.58712],[129.19231,40.6329],[129.19481,40.6339],[129.19914,40.63205],[129.20303,40.63505],[129.1987,40.64309],[129.20268,40.6564],[129.21257,40.65585],[129.2141,40.6592],[129.20694,40.66923],[129.2072,40.67197],[129.21318,40.67783],[129.21143,40.68779],[129.22064,40.69897],[129.2733,40.70472],[129.30335,40.67641],[129.32764,40.71839],[129.34583,40.73776],[129.39886,40.75605],[129.4126,40.76971],[129.41797,40.77216],[129.48654,40.79134],[129.49867,40.79201],[129.51503,40.78967],[129.54846,40.80698],[129.55052,40.80938],[129.54762,40.81644],[129.55907,40.82815],[129.5614,40.83031],[129.57457,40.83504],[129.69862,40.84346],[129.70996,40.82785],[129.71565,40.83026],[129.73317,40.85364],[129.73392,40.85463],[129.73775,40.88538],[129.75726,40.90417],[129.75569,40.90656],[129.74994,40.90645],[129.7484,40.9148],[129.75493,40.92795],[129.76511,40.93835],[129.72156,40.98437],[129.7354,40.99225],[129.73476,40.99481],[129.72722,40.99504],[129.72719,41.00055],[129.72072,41.01678],[129.72063,41.03033],[129.72589,41.06306],[129.72786,41.07305],[129.74368,41.09665],[129.72038,41.0999],[129.71793,41.12277],[129.72725,41.13345],[129.72784,41.13617],[129.71741,41.14942],[129.71985,41.15571],[129.72073,41.15795],[129.72163,41.19531],[129.74165,41.21523],[129.73459,41.2432],[129.74144,41.25059],[129.74933,41.25179],[129.75226,41.25223],[129.75345,41.25491],[129.74751,41.26193],[129.76114,41.27282],[129.75806,41.29252],[129.76897,41.30081],[129.77554,41.30822],[129.78172,41.31197],[129.78104,41.31408],[129.7754,41.31557],[129.77361,41.31866],[129.77705,41.32236],[129.78432,41.3249],[129.79155,41.33273],[129.79965,41.36874],[129.80942,41.37458],[129.80757,41.37722],[129.79347,41.38496],[129.78683,41.38559],[129.77908,41.38147],[129.77452,41.38152],[129.76645,41.38568],[129.74327,41.40843],[129.73917,41.39559],[129.7359,41.3935],[129.73401,41.39866],[129.73599,41.41162],[129.73456,41.41539],[129.68051,41.44043],[129.66039,41.46643],[129.65434,41.47872],[129.65831,41.51362],[129.65572,41.52108],[129.65222,41.53119],[129.65018,41.54945],[129.65362,41.55614],[129.65799,41.55955],[129.66708,41.57095],[129.69699,41.6516],[129.74397,41.69058],[129.7594,41.72318],[129.76155,41.76048],[129.76655,41.75858],[129.76886,41.74581],[129.77994,41.76902],[129.80969,41.77504],[129.85155,41.76239],[129.84982,41.77191],[129.84659,41.77601],[129.84899,41.78115],[129.85892,41.78789],[129.86485,41.78891],[129.86857,41.79213],[129.8698,41.79998],[129.87065,41.80555],[129.88179,41.82049],[129.87859,41.83056],[129.88774,41.84126],[129.88861,41.85774],[129.88264,41.86775],[129.88284,41.87233],[129.89687,41.90225],[129.90283,41.90625],[129.90843,41.90682],[129.95349,41.89211],[129.96053,41.90018],[129.95853,41.90421],[129.9487,41.90711],[129.94984,41.91186],[129.98729,41.94194],[129.98604,41.94454],[129.97267,41.94606],[129.96901,41.94904],[129.99229,41.97034],[129.98999,41.97462],[129.9834,41.97617],[129.97913,41.97919],[130.01395,42.01563],[130.03142,41.99019],[130.03017,42.00934],[130.03401,42.01273],[130.04451,42.02199],[130.04977,42.05521],[130.06879,42.03518],[130.07599,42.0391],[130.08177,42.0794],[130.08905,42.08377],[130.09917,42.08612],[130.13199,42.0875],[130.15233,42.06577],[130.16429,42.06799],[130.17378,42.0729],[130.17702,42.07959],[130.17361,42.08486],[130.15047,42.09276],[130.14479,42.09703],[130.17966,42.10814],[130.18407,42.10626],[130.18739,42.09754],[130.19193,42.09679],[130.20828,42.13987],[130.20824,42.14217],[130.19972,42.14593],[130.19936,42.14802],[130.213,42.15129],[130.21081,42.15648],[130.20136,42.16283],[130.19818,42.1674],[130.20663,42.17578],[130.20863,42.17776],[130.21216,42.17892],[130.22366,42.17427],[130.23236,42.1774],[130.29993,42.23533],[130.3033,42.23511],[130.30811,42.23136],[130.31484,42.21759],[130.31131,42.17944],[130.33011,42.18972],[130.33168,42.1926],[130.32825,42.20546],[130.33063,42.20991],[130.36845,42.22951],[130.36571,42.25084],[130.3741,42.25649],[130.3776,42.25719],[130.3974,42.24693],[130.40096,42.25084],[130.39741,42.2575],[130.39595,42.26863],[130.38364,42.27702],[130.38249,42.28307],[130.38567,42.29412],[130.401,42.28783],[130.40623,42.29025],[130.40541,42.29375],[130.39996,42.2948],[130.3972,42.29751],[130.4006,42.30533],[130.40159,42.3163],[130.39858,42.32224],[130.39111,42.32456],[130.38567,42.32814],[130.40204,42.33052],[130.4369,42.31399],[130.44514,42.30792],[130.45398,42.30413],[130.4581,42.31535],[130.46419,42.31702],[130.4662,42.32102],[130.46039,42.32416],[130.46167,42.32707],[130.46417,42.32866],[130.47374,42.33477],[130.48671,42.33713],[130.5045,42.33573],[130.51156,42.33273],[130.52708,42.31768],[130.53618,42.31868],[130.54082,42.31607],[130.57634,42.31302],[130.60979,42.28272],[130.59097,42.27295],[130.59207,42.25403],[130.62148,42.27205],[130.6358,42.26787],[130.67486,42.28361],[130.64613,42.33892],[130.64503,42.3483],[130.65186,42.35712],[130.66002,42.36755],[130.65881,42.37609],[130.65555,42.38646],[130.64787,42.39799],[130.61261,42.42944],[130.56479,42.44022],[130.56384,42.46479],[130.58357,42.47904],[130.54915,42.49541],[130.54927,42.52293],[130.52721,42.54166],[130.51135,42.58123],[130.51442,42.6154],[130.47475,42.61693],[130.45775,42.59392],[130.47661,42.55729],[130.44197,42.54782],[130.41708,42.56844],[130.43471,42.60621],[130.41336,42.61444],[130.37976,42.60017],[130.36006,42.63039],[130.30969,42.65904],[130.29033,42.69579],[130.25133,42.7095],[130.23441,42.73678],[130.24312,42.76376],[130.22739,42.78776],[130.23591,42.81798],[130.25527,42.84013],[130.24974,42.85777],[130.26849,42.88032],[130.2614,42.90363],[130.16943,42.91426],[130.13823,42.90239],[130.10643,42.91239],[130.10191,42.92662],[130.13296,42.93536],[130.11488,42.95245],[130.14485,42.97047],[130.14272,42.97908],[130.10457,42.98763],[130.05959,42.96794],[129.97343,42.97302],[129.95085,42.98384],[129.95688,43.00812]]]]}}]}